facility_name,longitude,latitude,description,address1,city,state,fac_zip
Bedford Medical Family Health Center Inc,"-73.962517","40.704281",Diagnostic and Treatment Center,100 Ross Street,Brooklyn,New York,"11211"
Jane Adams High School,"-73.903717","40.82114",School Based Diagnostic and Treatment Center Extension Clinic,900 Tinton Avenue,Bronx,New York,"10456"
Utica Avenue Dialysis Clinic,"-73.929131","40.640694",Diagnostic and Treatment Center,1305 Utica Avenue,Brooklyn,New York,"11203"
Bronx Dialysis Center,"-73.845772","40.844891",Diagnostic and Treatment Center,1615-1617 Eastchester Road,Bronx,New York,"10461"
HSS - Midtown,"-73.967795","40.76313",Hospital Extension Clinic,770 Lexington Avenue,New York,New York,"10065"
"Gramercy Surgery Center, Inc","-73.981209","40.737343",Diagnostic and Treatment Center,"380 2nd Avenue, Suite 1000",New York,New York,"10010"
BronxCare Dental Services,"-73.909653","40.8465",Diagnostic and Treatment Center Extension Clinic,1775 Grand Concourse,Bronx,New York,"10453"
Morrisania Dialysis Center,"-73.912041","40.831406",Diagnostic and Treatment Center Extension Clinic,1160 Teller Avenue,Bronx,New York,"10456"
Segundo Ruiz Belvis D & T Center,"-73.916794","40.810146",Diagnostic and Treatment Center,545 East 142nd Street,Bronx,New York,"10454"
X151,"-73.921303","40.822632",School Based Hospital Extension Clinic,250 East 156th Street,Bronx,New York,"10451"
Mount Sinai Hospital - Mount Sinai Hospital of Queens,"-73.924461","40.768269",Hospital,25-10 30th Avenue,Long Island City,New York,"11102"
Brookdale Family Care Center Inc,"-73.869911","40.667793",Diagnostic and Treatment Center,2554 Linden Blvd,Brooklyn,New York,"11208"
Gateway Dialysis Center,"-73.898575","40.643051",Diagnostic and Treatment Center,1170 East 98th Street,Brooklyn,New York,"11236"
JHS 220 Pershing,"-74.000595","40.640743",School Based Hospital Extension Clinic,4812 9th Ave,Brooklyn,New York,"11220"
Ambulatory Psychiatric Center,"-73.96067","40.805019",Hospital Extension Clinic,411 West 114th Street,New York,New York,"10025"
Cumberland Diagnostic & Treatment Center,"-73.976257","40.695091",Diagnostic and Treatment Center,100 North Portland Avenue,Brooklyn,New York,"11205"
BronxCare Medical and Dental at Poe,"-73.897896","40.860546",Diagnostic and Treatment Center Extension Clinic,2432 Grand Concourse,Bronx,New York,"10458"
Rockefeller University Hospital,"-73.956512","40.762962",Hospital,1230 York Avenue,New York,New York,"10021"
Medwise Center,"-73.851265","40.687325",Hospital Extension Clinic,91-10 Atlantic Avenue,Ozone Park,New York,"11416"
Wards Island Project,"-73.931857","40.786139",Diagnostic and Treatment Center Extension Clinic,"111 Sunken Garden Loop, Suite 137-143",New York,New York,"10035"
Casa Promesa Primary Medical Care Services,"-73.898247","40.82148",Diagnostic and Treatment Center Extension Clinic,915 Westchester Avenue,Bronx,New York,"10459"
Morris Heights Health Center,"-73.915924","40.805325",Diagnostic and Treatment Center Extension Clinic,625 East 137th Street,Bronx,New York,"10454"
Intermediate School 136,"-73.947716","40.817226",School Based Hospital Extension Clinic,6 Edgecomb Avenue,New York,New York,"10032"
DCI-Narrows Kidney Center,"-74.009514","40.630585",Diagnostic and Treatment Center Extension Clinic,6518 Fort Hamilton Parkway,Brooklyn,New York,"11209"
Medalliance Medical Health Services-Washington Heights,"-73.916266","40.86969",Diagnostic and Treatment Center Extension Clinic,5041 Broadway,New York,New York,"10034"
Farrell Community Health Center,"-73.945274","40.834972",Hospital Extension Clinic,610 West 158th Street,New York,New York,"10032"
Rogosin Brookdale Campus,"-73.914345","40.656487",Diagnostic and Treatment Center Extension Clinic,9701 Church Avenue,Brooklyn,New York,"11212"
Harlem Children's Zone Promise Academy 2,"-73.940864","40.806142",School Based Diagnostic and Treatment Center Extension Clinic,35 E. 125th Street,New York,New York,"10035"
Ralph Avenue Health Center,"-73.922517","40.668624",Diagnostic and Treatment Center Extension Clinic,599 Ralph Avenue,Brooklyn,New York,"11233"
BronxCare Hospital Center,"-73.911545","40.843609",Hospital,1650 Grand Concourse,Bronx,New York,"10457"
South Bronx Campus,"-73.911102","40.818226",School Based Hospital Extension Clinic,701 St. Ann's Ave,Bronx,New York,"10455"
Fifth Avenue Surgery Center,"-73.960388","40.781437",Diagnostic and Treatment Center,1049 Fifth Avenue,New York,New York,"10028"
Bay Park Dialysis Center,"-73.829187","40.879676",Diagnostic and Treatment Center Extension Clinic,801 Co Op City Boulevard,Bronx,New York,"10475"
Retinal Ambulatory Surgery Center of New York Inc,"-73.958801","40.775749",Diagnostic and Treatment Center,138140 East 80th Street,New York,New York,"10075"
University Eye Center,"-73.982727","40.754318",Diagnostic and Treatment Center,33 West 42nd St,New York,New York,"10036"
Walton Family Practice,"-73.909203","40.849613",Diagnostic and Treatment Center Extension Clinic,1894 Walton Ave,Bronx,New York,"10453"
Mental Health Clinic,"-73.903114","40.832577",Hospital Extension Clinic,1316 Fulton Avenue,Bronx,New York,"10456"
PS 24,"-74.00473","40.65274",School Based Hospital Extension Clinic,427 38th Street,Brooklyn,New York,"11232"
Washington Heights Health Center,"-73.939987","40.841106",Diagnostic and Treatment Center Extension Clinic,600 West 168th St,New York,New York,"10032"
Lenox Hill Hosp Center for Mental Health,"-73.957077","40.770443",Hospital Extension Clinic,1430 Second Avenue,New York,New York,"10021"
Yeled V'Yalda Childhood Center,"-73.95665","40.701416",School Based Diagnostic and Treatment Center Extension Clinic,99 Heyward Street,Brooklyn,New York,"11211"
Wyckoff Doctors at Myrtle,"-73.919785","40.69873",Hospital Extension Clinic,1419 Myrtle Avenue,Brooklyn,New York,"11206"
JGB Rehabilitation Corp,"-73.98805","40.774257",Diagnostic and Treatment Center,80 West End Avenue,New York,New York,"10023"
Morris Heights Health Center Mobile Van,"-73.916962","40.863728",Diagnostic and Treatment Center Extension Clinic,3875 Ninth Avenue,New York,New York,"10034"
PS 38,"-73.94429","40.788786",School Based Hospital Extension Clinic,232 East 103rd Street,Manhattan,New York,"10029"
Surgicare of Westside,"-73.990268","40.764646",Diagnostic and Treatment Center,438 West 51st Street,New York,New York,"10019"
X158,"-73.900368","40.827721",School Based Diagnostic and Treatment Center Extension Clinic,800 Home Street,Bronx,New York,"10456"
Public Health Solutions Fort Greene Center,"-73.982254","40.691814",Diagnostic and Treatment Center,295 Flatbush Avenue Extension,Brooklyn,New York,"11201"
FMS-Eastchester,"-73.842687","40.849448",Diagnostic and Treatment Center Extension Clinic,1776 Eastchester Road,Bronx,New York,"10461"
Mount Sinai Morningside,"-73.961639","40.805912",Hospital,1111 Amsterdam Avenue,New York,New York,"10025"
Ahava Medical and Rehabilitation Center,"-73.940971","40.70039",Diagnostic and Treatment Center Extension Clinic,16-18 Sumner Place,Brooklyn,New York,"11206"
PS 457,"-73.917831","40.8321",School Based Diagnostic and Treatment Center Extension Clinic,1116 Sheridan Avenue,Bronx,New York,"10456"
Columbus Center for Medical Rehabilitation,"-73.922478","40.836143",Diagnostic and Treatment Center,1221 Jerome Avenue,Bronx,New York,"10452"
Brookdale Hospital Medical Center,"-73.912579","40.655066",Hospital,1 Brookdale Plaza,Brooklyn,New York,11212-3139
Weill Cornell Imaging at New York Presbyterian,"-73.954422","40.765354",Diagnostic and Treatment Center,"520 East 70th Street, Level J-0",New York,New York,"10021"
Medisys Family Care - East New York,"-73.881445","40.678679",Hospital Extension Clinic,3080 Atlantic Avenue,Brooklyn,New York,"11208"
P. S. 97,"-73.975227","40.718727",School Based Diagnostic and Treatment Center Extension Clinic,525 E Houston Street,New York,New York,"10002"
Community Healthcare Network East New York,"-73.89918","40.676003",Diagnostic and Treatment Center Extension Clinic,2581 Atlantic Avenue,Brooklyn,New York,"11207"
Wingate Dialysis,"-73.942909","40.660442",Diagnostic and Treatment Center Extension Clinic,550 Kingston Avenue,Brooklyn,New York,"11203"
West Midtown Medical Group,"-73.99382","40.753273",Diagnostic and Treatment Center,311 West 35th Street,New York,New York,"10001"
"La Casa de Salud, Inc.","-73.909103","40.684284",Diagnostic and Treatment Center Extension Clinic,1420 Bushwick Avenue,Brooklyn,New York,"11207"
Morris Heights Health Center,"-73.909782","40.85429",Diagnostic and Treatment Center Extension Clinic,55-69 West Burnside Avenue,Bronx,New York,"10453"
Citadel Renal Center LLC,"-73.901619","40.868374",Diagnostic and Treatment Center,100 West Kingsbridge Road,Bronx,New York,"10468"
JHS 22 (Jordan L Mott),"-73.913681","40.832264",School Based Diagnostic and Treatment Center Extension Clinic,E 167th St & College,Bronx,New York,"10456"
New York Presbyterian / Lower Manhattan Cancer Center,"-74.011078","40.713146",Hospital Extension Clinic,21 West Broadway,New York,New York,"10007"
P S 95,"-73.890907","40.883423",School Based Hospital Extension Clinic,3961 Hillman Avenue,Bronx,New York,"10463"
Lenox Health Greenwich Village,"-74.000488","40.737576",Hospital,30 Seventh Avenue,New York,New York,"10011"
HSS East River Professional Building,"-73.952316","40.766312",Hospital Extension Clinic,523 East 72nd Street,New York,New York,"10021"
Planned Parenthood Staten Island Health Center,"-74.077248","40.641933",Diagnostic and Treatment Center Extension Clinic,23 Hyatt Street,Staten Island,New York,"10301"
Martin Luther King Jr High School,"-73.984856","40.774303",School Based Hospital Extension Clinic,122 Amsterdam Ave,New York,New York,"10024"
Manhattan Avenue Health Center,"-73.954491","40.732021",Hospital Extension Clinic,960 Manhattan Avenue,Brooklyn,New York,"11222"
Mount Sinai Kidney Center,"-73.931943","40.795041",Hospital Extension Clinic,520 East 117th Street,New York,New York,"10035"
Metro Community Health Center - NYU Dental School,"-73.978391","40.73803",Diagnostic and Treatment Center Extension Clinic,"335 East 24th Street, Suite 1B",New York,New York,"10010"
Yeled V'Yalda Childhood Center,"-73.969841","40.619057",School Based Diagnostic and Treatment Center Extension Clinic,1212 Ocean Parkway,Brooklyn,New York,"11218"
NYP/Queens Eye Care Center,"-73.794952","40.73914",Hospital Extension Clinic,"174-15 Horace Harding Expressway, Ground Floor",Fresh Meadows,New York,"11365"
Washington Heights ACNC-Audubon,"-73.939034","40.839462",Hospital Extension Clinic,21 Audubon Avenue,New York,New York,"10032"
Family Health Center of Harlem,"-73.943626","40.801773",Diagnostic and Treatment Center,1824 Madison Avenue,New York,New York,"10034"
Thurgood Marshall Academy,"-73.944115","40.815411",School Based Hospital Extension Clinic,200-214 West 135th Street,New York,New York,"10030"
Wm F Ryan Community Health Center Inc-NENA,"-73.980034","40.721508",Diagnostic and Treatment Center Extension Clinic,279 East Third Street,New York,New York,"10009"
Memorial Sloan Kettering Brooklyn Infusion Center,"-73.979019","40.684727",Hospital Extension Clinic,557 Atlantic Avenue,Brooklyn,New York,"11217"
Charles B Wang Community Health Center Inc,"-73.822624","40.751195",Diagnostic and Treatment Center Extension Clinic,137-43 45th Avenue,Flushing,New York,"11355"
The Bronx Center for Renal Dialysis,"-73.861229","40.826546",Diagnostic and Treatment Center,1010 Underhill Avenue,Bronx,New York,"10472"
Mount Sinai Downtown Union Square,"-73.990471","40.734909",Hospital Extension Clinic,10 Union Square East,New York,New York,"10003"
Metro Healthcare Partners,"-73.94174","40.59873",Diagnostic and Treatment Center,3500 Nostrand Avenue,Brooklyn,New York,"11235"
Rogosin Kidney Center-Queens Dialysis,"-73.898277","40.740467",Diagnostic and Treatment Center Extension Clinic,66-20 Queens Blvd,Woodside,New York,"11377"
West Side GI,"-73.994598","40.769203",Diagnostic and Treatment Center,619 West 54th Street,New York,New York,"10019"
Ana's Place Clinic,"-73.857872","40.899218",Diagnostic and Treatment Center Extension Clinic,4380 Bronx Boulevard,Bronx,New York,"10466"
Odyssey House East 6th St Clinic,"-73.988029","40.727261",Diagnostic and Treatment Center Extension Clinic,309-11 East 6th Street,New York,New York,"10003"
The Preston Robert Tisch Center for Men's Health at NYU Langone,"-73.972992","40.761307",Hospital Extension Clinic,555 Madison Avenue,New York,New York,"10016"
I S 90,"-73.935829","40.83968",School Based Diagnostic and Treatment Center Extension Clinic,21 Jumel Place,New York,New York,"10032"
Workmens Circle Dialysis Center,"-73.837212","40.87442",Diagnostic and Treatment Center,3155 Grace Avenue,Bronx,New York,"10469"
Women's Medical Center at Corona,"-73.866678","40.734802",Diagnostic and Treatment Center Extension Clinic,59-17 Junction Boulevard,Corona,New York,"11368"
Eastchester Road Dialysis Center,"-73.845779","40.845093",Diagnostic and Treatment Center Extension Clinic,1515 Jarrett Place,Bronx,New York,"10461"
NYP/Queens Wound Healing Center,"-73.811638","40.706882",Hospital Extension Clinic,144-45 87th Avenue,Jamaica,New York,"11435"
"ODA Primary Health Care Network, Inc.","-73.9533","40.706772",Diagnostic and Treatment Center Extension Clinic,329 Hewes Street,Brooklyn,New York,"11211"
Eye Surgery Center of New York,"-73.885819","40.875186",Diagnostic and Treatment Center,"3130 Grand Concourse, Suite B5",Bronx,New York,"10458"
Ditmas Park Dialysis Center,"-73.957629","40.640263",Diagnostic and Treatment Center,2107 Ditmas Avenue,Brooklyn,New York,"11226"
Catholic Managed Long Term Care,"-73.946198","40.801136",Diagnostic and Treatment Center,1432 Fifth Avenue,New York,New York,"10026"
CHN - Tremont,"-73.896172","40.846844",Diagnostic and Treatment Center Extension Clinic,4215 Third Avenue,Bronx,New York,"10457"
Maimonides Sleep Disorder Clinic,"-74.014145","40.634457",Hospital Extension Clinic,6405 7th Avenue,Brooklyn,New York,"11219"
Avantus Irving Place Dialysis Center,"-73.98813","40.73533",Diagnostic and Treatment Center,"120 East 16th Street, 6th Floor",New York,New York,"10003"
99 Fort Washington,"-73.943787","40.83857",Hospital Extension Clinic,99 Fort Washington Avenue,New York,New York,"10032"
BronxCare Tiffany Medical and Pediatric Practice,"-73.89357","40.817955",Diagnostic and Treatment Center Extension Clinic,853 Tiffany Street,Bronx,New York,"10459"
"Union Community Health Center, Site 6","-73.865236","40.85027",Diagnostic and Treatment Center Extension Clinic,2016 Bronxdale Avenue,Bronx,New York,"10457"
CHN - Helen B Atkinson Center,"-73.949532","40.801132",Diagnostic and Treatment Center Extension Clinic,81 West 115th Street,New York,New York,"10026"
Banana Kelly High School,"-73.897606","40.817219",School Based Diagnostic and Treatment Center Extension Clinic,965 Longwood Avenue,Bronx,New York,"10459"
Harry S. Truman High School,"-73.833755","40.8745",School Based Diagnostic and Treatment Center Extension Clinic,750 Baychester Avenue,Bronx,New York,"10475"
Housing Works Health Services III,"-73.992429","40.754327",Diagnostic and Treatment Center Extension Clinic,"301 West 37th Street, 4th floor",New York,New York,"10018"
Richmond Hill Clinic,"-73.820709","40.699528",Diagnostic and Treatment Center Extension Clinic,130-20 89th Road,Richmond Hill,New York,"11418"
Community Mental Health Center,"-73.753983","40.600086",Hospital Extension Clinic,521 Beach 20th Street,Far Rockaway,New York,"11691"
Ozone Park Dialysis,"-73.838834","40.679795",Diagnostic and Treatment Center Extension Clinic,100-02 Rockaway Boulevard,Ozone Park,New York,"11417"
Charles B Rangel Comm Health Center,"-73.954613","40.819843",Hospital Extension Clinic,534 A West 135th Street,New York,New York,"10031"
Sterling Health Center,"-73.951744","40.672665",Diagnostic and Treatment Center Extension Clinic,803 Sterling Place,Brooklyn,New York,"11216"
Washington Irving High School,"-73.987511","40.735603",School Based Diagnostic and Treatment Center Extension Clinic,40 Irving Place,New York,New York,"10003"
Mount Sinai Brooklyn,"-73.94323","40.617954",Hospital,3201 Kings Highway,Brooklyn,New York,"11234"
CHN Mobile Van VII,"-73.805962","40.696922",Mobile Diagnostic and Treatment Center Extension Clinic,97-04 Sutphin Boulevard,Jamaica,New York,"11435"
BMS Dental Genesis,"-73.899483","40.666916",Diagnostic and Treatment Center Extension Clinic,330 Hinsdale Street,Brooklyn,New York,"11207"
Hospital for Special Surgery,"-73.954185","40.765381",Hospital,535 E 70th Street,New York,New York,"10021"
LMRC Mobile Unit,"-73.985405","40.640945",School Based Diagnostic and Treatment Center Extension Clinic,1312 38th Street,Brooklyn,New York,"11218"
Main Street Radiology at Bayside,"-73.865762","40.710342",Diagnostic and Treatment Center Extension Clinic,83-14 Cooper Avenue,Glendale,New York,"11385"
PS 169 Sunset Park,"-74.00193","40.64603",School Based Hospital Extension Clinic,4305 7th Avenue,Brooklyn,New York,"11232"
Brooklyn Eye Surgery Center,"-73.963158","40.625046",Diagnostic and Treatment Center,1301 Avenue J,Brooklyn,New York,"11230"
City Wide Health Facility Inc.,"-73.987297","40.606144",Diagnostic and Treatment Center,105 Kings Highway,Brooklyn,New York,"11223"
HSS ASC of Manhattan,"-73.961861","40.764156",Diagnostic and Treatment Center,1233 Second Avenue,New York,New York,"10065"
Quality Kidney Care,"-73.781094","40.595244",Diagnostic and Treatment Center,50-15 Beach Channel Drive,Far Rockaway,New York,"11691"
CHN-Long Island City Health Center,"-73.936974","40.759594",Diagnostic and Treatment Center Extension Clinic,36-11 21st Street,Long Island City,New York,"11106"
ColumbiaDoctors/NewYork-Presbyterian Imaging,"-73.9804","40.76092",Diagnostic and Treatment Center,51 West 51st Street,New York,New York,"10019"
South Bronx Health Center,"-73.901321","40.820606",Hospital Extension Clinic,871 Prospect Avenue,Bronx,New York,"10459"
Dyckman Family Health Center,"-73.923538","40.862026",Diagnostic and Treatment Center Extension Clinic,175 Nagle Avenue,New York,New York,"10034"
FMS-St. Alban's Dialysis Center,"-73.770439","40.682812",Diagnostic and Treatment Center Extension Clinic,172-70 Baisley Blvd,Jamaica,New York,"11434"
NYU Langone Rusk Ambulatory Care Center,"-73.974976","40.747627",Hospital Extension Clinic,240 East 38th Street,New York,New York,"10016"
PS 11 Wt Harris/The Clinton School,"-74.000763","40.744518",School Based Diagnostic and Treatment Center Extension Clinic,320 West 21st Street,New York,New York,"10011"
St. Nicholas Houses Child Health Clinic,"-73.949707","40.811333",Diagnostic and Treatment Center Extension Clinic,281 West 127th Street,New York,New York,"10027"
Brookdale Urgent Care and Family Care Center,"-73.912735","40.654362",Hospital Extension Clinic,1235 Linden Blvd,Brooklyn,New York,"11212"
Bronxchester Home Training,"-73.842709","40.84792",Diagnostic and Treatment Center Extension Clinic,34 Marconi Street,Bronx,New York,"10461"
PS 243- The Weeksville School,"-73.934955","40.675887",School Based Hospital Extension Clinic,1580 Dean Street,Brooklyn,New York,"11213"
Maimonides Pediatric Care 57th Street,"-73.99646","40.630432",Hospital Extension Clinic,1301 57th St,Brooklyn,New York,"11219"
Millenium Ambulatory Surgery Center,"-73.956863","40.627888",Diagnostic and Treatment Center,1408 Ocean Avenue,Brooklyn,New York,"11230"
The Brooklyn Green School,"-73.92798","40.674521",School Based Hospital Extension Clinic,130 Rochester Avenue,Brooklyn,New York,"11213"
Mobile Medical Unit,"-73.991211","40.726082",Diagnostic and Treatment Center Extension Clinic,8 East Third Street,New York,New York,"10003"
Springfield Dialysis Center,"-73.753654","40.67923",Diagnostic and Treatment Center Extension Clinic,134-35 Springfield Boulevard,Laurelton,New York,"11413"
Frederick Douglas Academy,"-73.937134","40.824013",School Based Diagnostic and Treatment Center Extension Clinic,2581 Seventh Avenue,New York,New York,"10039"
Union Community Health Center Ext Clinic,"-73.89151","40.853554",Diagnostic and Treatment Center Extension Clinic,4487 Third Avenue,Bronx,New York,"10457"
Sheepshead Bay Surgery Center,"-73.952667","40.606426",Diagnostic and Treatment Center,2269 Ocean Avenue,Brooklyn,New York,"11229"
PS 38,"-73.944283","40.788795",School Based Hospital Extension Clinic,232 East 103rd Street,New York,New York,"10029"
Myrtle Avenue Family Health Center,"-73.832008","40.70023",Diagnostic and Treatment Center Extension Clinic,117-11 Myrtle Avenue,Richmond Hill,New York,"11418"
WCINYP at 53 Beekman,"-74.005252","40.709961",Diagnostic and Treatment Center Extension Clinic,53 Beekman Street,New York,New York,"10038"
PS 155,"-73.810173","40.679634",School Based Hospital Extension Clinic,130-02 115th Ave,South Ozone Park,New York,"11420"
HSS Physiatry & Pain Management,"-73.953278","40.769276",Hospital Extension Clinic,429 East 75th Street,New York,New York,"10021"
Premium Health Women's Health Center,"-73.983772","40.633003",Diagnostic and Treatment Center Extension Clinic,4514 16th Avenue,Brooklyn,New York,"11204"
"Queens Dialysis at The Pavilion, LLC","-73.823189","40.764179",Diagnostic and Treatment Center,36-17 Parsons Boulevard,Flushing,New York,"11354"
Mt. Sinai Adult Treatment Program,"-73.951065","40.794212",Hospital Extension Clinic,1249 Fifth Avenue,New York,New York,"10029"
PS 503 and Ps 506,"-74.019135","40.642139",School Based Hospital Extension Clinic,330 59th Street,Brooklyn,New York,"11220"
PS 29 The Melrose School,"-73.916962","40.821999",School Based Diagnostic and Treatment Center Extension Clinic,758 Courtlandt Avenue,Bronx,New York,"10451"
Queens Surgical Center,"-73.832065","40.762018",Diagnostic and Treatment Center,36-36 Main Street,Flushing,New York,"11354"
Care For the Homeless at The Living Room,"-73.889814","40.816823",Diagnostic and Treatment Center Extension Clinic,800 Barretto Street,Bronx,New York,"10474"
START Treatment & Recovery Centers,"-73.931503","40.84742",Diagnostic and Treatment Center Extension Clinic,500 West 180th Street,New York,New York,"10033"
PS 105,"-73.866257","40.852451",School Based Hospital Extension Clinic,725 Brady Avenue,Bronx,New York,"10462"
Wards Island Family Health Center,"-73.933804","40.789506",Diagnostic and Treatment Center Extension Clinic,13 Hell Gate Circle,New York,New York,"10035"
Doral Dialysis Center,"-73.906815","40.670455",Diagnostic and Treatment Center,1797 Pitkin Avenue,Brooklyn,New York,"11212"
Care For the Homeless,"-73.910332","40.850643",Diagnostic and Treatment Center,1911-1921 Jerome Avenue,Bronx,New York,"10453"
Memorial Sloan Kettering Breast and Diagnostic Imaging Center,"-73.960243","40.764553",Hospital Extension Clinic,300 East 66th Street,New York,New York,10065-6800
George Wingate Educational Campus,"-73.943711","40.658704",School Based Hospital Extension Clinic,600 Kingston Avenue,Brooklyn,New York,"11203"
NYU Langone Center for Women's Imaging,"-73.979996","40.745899",Hospital Extension Clinic,221 Lexington Ave,New York,New York,"10016"
HSS River Terrace,"-73.952576","40.766422",Hospital Extension Clinic,519 East 72nd Street,New York,New York,"10021"
"Smile New York Outreach, LLC","-73.886083","40.839259",Diagnostic and Treatment Center,1808 Crotona Parkway,Bronx,New York,"10460"
Help One,"-73.900139","40.667889",Diagnostic and Treatment Center Extension Clinic,515 Blake Avenue,Brooklyn,New York,"11207"
Elmhurst Voyages High School,"-73.871391","40.743252",School Based Diagnostic and Treatment Center Extension Clinic,45-10 94th Street,Queens,New York,"11377"
Woodhull Medical & Mental Health Center,"-73.941711","40.700535",Hospital,760 Broadway,Brooklyn,New York,"11206"
Brownsville Multi-Service Family Health Center,"-73.909813","40.665806",Diagnostic and Treatment Center,592 Rockaway Avenue,Brooklyn,New York,"11212"
New York City Department of Health and Mental Hygiene,"-73.982254","40.691814",Diagnostic and Treatment Center,295 Flatbush Ave Ext,Brooklyn,New York,"11201"
Memorial Hospital for Cancer and Allied Diseases,"-73.956812","40.764386",Hospital,1275 York Avenue,New York,New York,"10065"
Long Island Jewish Medical Center,"-73.707576","40.753797",Hospital,270-05 76th Avenue,New Hyde Park,New York,"11040"
Brooklyn United Methodist Continuum Services,"-73.860937","40.671229",Diagnostic and Treatment Center,1485 Dumont Ave,Brooklyn,New York,"11208"
Wyckoff Heights Medical Center Pediatric Center,"-73.919565","40.698678",Hospital Extension Clinic,1411-1417 Myrtle Avenue,Brooklyn,New York,"11127"
Dental Center,"-73.955132","40.670677",Hospital Extension Clinic,1536 Bedford Avenue,Brooklyn,New York,"11238"
Sumner Avenue Child Health Clinic,"-73.94101","40.698071",Diagnostic and Treatment Center Extension Clinic,47 Marcus Garvey Blvd,Brooklyn,New York,"11206"
South Queens Community Center,"-73.785919","40.688362",Diagnostic and Treatment Center Extension Clinic,114-02 Guy Brewer Boulevard,Jamaica,New York,"11434"
"Rockaways ASC Development, LLC","-73.826469","40.583018",Diagnostic and Treatment Center,105-20 Rockaway Beach Boulevard,Rockaway Park,New York,"11694"
Montefiore Med Grp Aging In America,"-73.845474","40.857277",Hospital Extension Clinic,1500 Pelham Parkway,Bronx,New York,"10461"
Ridgewood Communicare Center,"-73.905071","40.702795",Diagnostic and Treatment Center Extension Clinic,769 Onderdonk Avenue,Ridgewood,New York,"11385"
Beth Israel Med Center #2,"-73.938629","40.804955",Hospital Extension Clinic,103 East 125th Street,New York,New York,"10035"
PS 86,"-73.802773","40.707926",School Based Diagnostic and Treatment Center Extension Clinic,87-41 Parson Boulevard,Jamaica,New York,"11432"
Ridge Care Dialysis,"-73.903816","40.699943",Diagnostic and Treatment Center Extension Clinic,17-34 Hancock Street,Queens,New York,"11385"
"Ahava Medical and Rehabilitation Center, LLC","-73.945923","40.622116",Diagnostic and Treatment Center,2555 Nostrand Avenue,Brooklyn,New York,"11210"
Mobile Medical Unit,"-73.946495","40.807384",Mobile Diagnostic and Treatment Center Extension Clinic,123-125 W. 124th Street,New York,New York,"10027"
Urban Health Plan,"-73.892036","40.824715",Diagnostic and Treatment Center,1065 Southern Boulevard,Bronx,New York,"10459"
ODA Primary Health Care Network Mobile Van Extension Clinic,"-73.958666","40.698165",Mobile Diagnostic and Treatment Center Extension Clinic,35 Franklin Avenue,Brooklyn,New York,"11205"
Mott Hall Campus,"-73.917565","40.828314",School Based Diagnostic and Treatment Center Extension Clinic,250 East 164th Street,Bronx,New York,"10456"
NYU Langone Perlmutter Cancer Center - Bayridge,"-74.027108","40.620428",Hospital Extension Clinic,8721 5th Avenue,Brooklyn,New York,"11209"
"La Casa De Salud, Inc.","-73.90036","40.822506",Diagnostic and Treatment Center,966 Prospect Avenue,Bronx,New York,"10459"
Is286/172,"-73.955193","40.815258",School Based Diagnostic and Treatment Center Extension Clinic,509 W 129th Street,New York,New York,"10037"
Brooklyn Community Dialysis,"-74.013376","40.634033",Diagnostic and Treatment Center Extension Clinic,730 64th Street,Brooklyn,New York,"11220"
Midwood Dialysis,"-73.954315","40.615143",Diagnostic and Treatment Center Extension Clinic,1915 Ocean Avenue,Brooklyn,New York,"11230"
NYU Langone Outpatient Surgery Center,"-73.971489","40.746284",Hospital Extension Clinic,339 East 38th Street,New York,New York,"10016"
East Harlem Council for Human Services Inc,"-73.936569","40.802544",Diagnostic and Treatment Center,2265 Third Avenue,New York,New York,"10035"
Brian Picolo/Intermediate School #53 School Clinic,"-73.749321","40.604053",School Based Hospital Extension Clinic,1045 Nameoke Street,Far Rockaway,New York,"11691"
William Howard Taft High School,"-73.91098","40.840389",School Based Hospital Extension Clinic,240 East 172nd Street,Bronx,New York,"10457"
Grace Dodge Campus,"-73.882411","40.855328",School Based Diagnostic and Treatment Center Extension Clinic,2474 Crotona Avenue,Bronx,New York,"10458"
University Heights Dialysis,"-73.904521","40.856677",Diagnostic and Treatment Center Extension Clinic,2190 Jerome Avenue,Bronx,New York,"10453"
850 Grand St Campus High School,"-73.938995","40.711045",School Based Diagnostic and Treatment Center Extension Clinic,850 Grand Street,Brooklyn,New York,"11211"
Primary Care Clinic,"-74.084381","40.582493",Hospital Extension Clinic,500 Seaview Avenue,Staten Island,New York,"10305"
New Settlement School,"-73.916191","40.842426",School Based Hospital Extension Clinic,1501 Jerome Avenue,Bronx,New York,"10452"
Brooklyn Birthing Center,"-73.953056","40.608494",Diagnostic and Treatment Center,2183 Ocean Avenue,Brooklyn,New York,"11229"
FMS-Southern Manhattan Dialysis Center,"-73.997025","40.736973",Diagnostic and Treatment Center,510-526 Avenue of the Americas,New York,New York,"10011"
Bushwick Center for Renal Dialysis LLC,"-73.898109","40.676289",Diagnostic and Treatment Center,50 Sheffield Ave,Brooklyn,New York,"11207"
256 Mason Avenue Radiology,"-74.086708","40.586643",Hospital Extension Clinic,256 Mason Avenue,Staten Island,New York,"10305"
Starhill Clinic,"-73.917061","40.845989",Diagnostic and Treatment Center Extension Clinic,1600 Macombs Rd,Bronx,New York,"10452"
NY Med of Brooklyn,"-73.95008","40.67115",Diagnostic and Treatment Center,765 Nostrand Avenue,Brooklyn,New York,"11216"
Adolescent Health and Wellness Center,"-73.891602","40.821728",Diagnostic and Treatment Center Extension Clinic,960 Southern Boulevard,Bronx,New York,"10459"
Queens Health Center,"-73.927765","40.744427",Diagnostic and Treatment Center Extension Clinic,37-11 Queens Blvd,Long Island City,New York,"11101"
Manhattan Center for Math & Science,"-73.933334","40.794697",School Based Hospital Extension Clinic,FDR Drive & E 116th Street,New York,New York,"10029"
Phoenix House Long Island City Family Health Center,"-73.940491","40.765057",Diagnostic and Treatment Center Extension Clinic,34-11 Vernon Boulevard,Long Island City,New York,"11106"
Stevenson High School,"-73.855673","40.821344",School Based Hospital Extension Clinic,1980 Lafayette Avenue,Bronx,New York,"10473"
PS 48,"-73.886726","40.814362",School Based Diagnostic and Treatment Center Extension Clinic,1290 Spofford Ave.,Bronx,New York,"10474"
New York Eye and Ear Infirmary of Mount Sinai,"-73.984711","40.732189",Hospital,310 East 14th Street,New York,New York,"10003"
Bay Ridge Sunset Park Dialysis Center,"-74.022873","40.645264",Diagnostic and Treatment Center,140 58th Street Bldg B Suite 1-I,Brooklyn,New York,"11220"
City Wide Health Facility Inc.,"-73.98381","40.61097",Diagnostic and Treatment Center Extension Clinic,6817 Bay Parkway,Brooklyn,New York,"11204"
Callen-Lorde Brooklyn,"-73.985443","40.697418",Diagnostic and Treatment Center Extension Clinic,40 Flatbush Avenue Extension,Brooklyn,New York,"11201"
Murry Bergtraum High School Campus,"-74.001767","40.7111",School Based Diagnostic and Treatment Center Extension Clinic,"411 Pearl Street, Room 500",New York,New York,"10038"
Premium Health,"-73.971024","40.630184",Diagnostic and Treatment Center,620 Foster Avenue,Brooklyn,New York,"11230"
New Dorp High School,"-74.107338","40.569302",School Based Hospital Extension Clinic,465 New Dorp Lane,Staten Island,New York,"10306"
P.S. 002 Meyer London,"-73.99135","40.713167",School Based Hospital Extension Clinic,122 Henry Street,New York,New York,"10002"
CES 73,"-73.926704","40.83276",School Based Diagnostic and Treatment Center Extension Clinic,1020 Anderson Avenue,Bronx,New York,"10452"
PS 108,"-73.948235","40.795238",School Based Hospital Extension Clinic,1615 Madison Avenue,New York,New York,"10029"
CHCR Stapleton St. George Health Center,"-74.07843","40.627022",Diagnostic and Treatment Center Extension Clinic,135 Canal Street,Staten Island,New York,"10304"
Chemical Dependence Treatment Program,"-74.077621","40.62706",Hospital Extension Clinic,111 Water Street,Staten Island,New York,"10304"
Harlem Health Center,"-73.937134","40.813541",Diagnostic and Treatment Center Extension Clinic,1333 Morningside Avenue,New York,New York,"10027"
Montefiore Medical Center-Wakefield Hospital,"-73.86142","40.894569",Hospital,600 East 233rd Street,Bronx,New York,"10466"
Mount Sinai Hospital - Mount Sinai Hospital Queens,"-73.884457","40.749003",Hospital Extension Clinic,37-12 82nd Street,Jackson Heights,New York,"11372"
Bushwick Educational Campus,"-73.911382","40.69709",School Based Diagnostic and Treatment Center Extension Clinic,400 Irving Avenue,Brooklyn,New York,"11237"
M S 51- Alexander,"-73.984138","40.671848",School Based Hospital Extension Clinic,350 5th Avenue,Brooklyn,New York,"11215"
L'Refuah Medical & Rehabilitation Center,"-73.985405","40.640945",Diagnostic and Treatment Center,1312 38th Street,Brooklyn,New York,"11218"
CHN Mobile Unit Two,"-73.805962","40.696922",Mobile Diagnostic and Treatment Center Extension Clinic,97-04 Sutphin Boulevard,Jamaica,New York,"11435"
Lower Eastside Service Center Inc,"-73.99585","40.713638",Diagnostic and Treatment Center Extension Clinic,46 East Broadway,New York,New York,"10002"
All-Med Rehabilitation Center Queens,"-73.837669","40.696445",Diagnostic and Treatment Center Extension Clinic,110-20 Jamaica Ave,Queens,New York,"11418"
Goodwill Integrated Health and Wellness Center (GIHWC),"-73.932487","40.77486",Diagnostic and Treatment Center Extension Clinic,4-21 27th Street,Astoria,New York,"11102"
"Manhattan Endoscopy Center, LLC","-73.979721","40.754951",Diagnostic and Treatment Center,535 5th Avenue,New York,New York,"10017"
"Endoscopic Ambulatory Specialty Center of Bay Ridge, Inc.","-74.025322","40.630009",Diagnostic and Treatment Center,7601 Fourth Avenue,Brooklyn,New York,"11209"
Bayard Rustin Education Complex (BREC),"-73.992249","40.73867",School Based Hospital Extension Clinic,West 18th Street,New York,New York,"10011"
Sunset Terrace Family Health Center at NYU Langone,"-74.009232","40.645313",Hospital Extension Clinic,514 49th Street,Brooklyn,New York,"11220"
Gouverneur Clinic,"-73.988365","40.718433",Hospital Extension Clinic,109 Delancey St,New York,New York,"10002"
North Queens Surgical Center,"-73.782028","40.755056",Diagnostic and Treatment Center,45-64 Francis Lewis Boulevard,Bayside,New York,"11361"
Fordham Tremont Comm Mentl Health Center,"-73.885063","40.846352",Hospital Extension Clinic,817 East 180th Street,Bronx,New York,"10460"
NewYork-Presbyterian/Queens,"-73.826035","40.747517",Hospital,56-45 Main Street,Flushing,New York,"11355"
BronxCare Center for Physical Rehabilitation,"-73.909665","40.846509",Hospital Extension Clinic,1775 Grand Concourse,Bronx,New York,"10453"
Central Harlem Health Center,"-73.937134","40.813541",Diagnostic and Treatment Center Extension Clinic,2238 Fifth Avenue,New York,New York,"10035"
"Vocational Instruction Project Community Services, Inc.","-73.893288","40.845509",Diagnostic and Treatment Center,770 East 176th Street,Bronx,New York,"10460"
Seward Park Educational Campus,"-73.989323","40.717321",School Based Diagnostic and Treatment Center Extension Clinic,350 Grand Street,New York,New York,"10002"
Soundview Dialysis Center,"-73.874184","40.823925",Diagnostic and Treatment Center Extension Clinic,1622-24 Bruckner Blvd,Bronx,New York,"10473"
Methadone Clinc I,"-73.92746","40.673027",Hospital Extension Clinic,1480 Prospect Place,Brooklyn,New York,"11213"
Settlement Health,"-73.944023","40.791229",Diagnostic and Treatment Center,212 East 106th Street,New York,New York,"10029"
"Be Well Primary Health Care Center, LLC","-73.947876","40.636341",Diagnostic and Treatment Center,3007 Farragut Road,Brooklyn,New York,"11210"
CitiCARES Community Health Center,"-73.946765","40.809789",Diagnostic and Treatment Center Extension Clinic,154 West 127th Street,New York,New York,"10027"
Coney Island Hospital,"-73.965797","40.58662",Hospital,2601 Ocean Parkway,Brooklyn,New York,"11235"
NYP/Queens Family Health Center,"-73.893234","40.754845",Hospital Extension Clinic,73-15 Northern Boulevard,Jackson Heights,New York,"11372"
PS 196/MS 582,"-73.939916","40.708721",School Based Hospital Extension Clinic,207 Bushwick Avenue,Brooklyn,New York,"11206"
"New York Artificial Kidney Center, Inc","-73.94121","40.584192",Diagnostic and Treatment Center,2701 Emmons Avenue,Brooklyn,New York,"11235"
NYU Mobile Dental Equip Sch Prog,"-73.978661","40.737877",School Based Diagnostic and Treatment Center Extension Clinic,345 East 24th Street,New York,New York,"10010"
"BronxCare Dr. Martin Luther King, Jr. Health Center","-73.902634","40.831161",Diagnostic and Treatment Center,1265 Franklin Avenue,Bronx,New York,"10456"
"ODA Primary Health Network, Inc.","-73.964172","40.709152",Diagnostic and Treatment Center Extension Clinic,432 Bedford Avenue,Brooklyn,New York,"11211"
Morris Heights Health Center,"-73.910629","40.85471",Diagnostic and Treatment Center,85 West Burnside Avenue,Bronx,New York,"10453"
Springfield Gardens Educational Campus,"-73.756819","40.668883",School Based Diagnostic and Treatment Center Extension Clinic,143-10 Springfield Boulevard,Springfield Gardens,New York,"11413"
Dewitt Clinton High School,"-73.886765","40.88179",School Based Hospital Extension Clinic,100 West Mosholu Parkway South,Bronx,New York,"10468"
East Tremont Medical Center,"-73.883591","40.841633",Diagnostic and Treatment Center Extension Clinic,930 East Tremont Avenue,Bronx,New York,"10460"
CHN Mobile Unit Three,"-73.805962","40.696922",Mobile Diagnostic and Treatment Center Extension Clinic,97-04 Sutphin Boulevard,Jamaica,New York,"11435"
Weill Cornell Imaging at New York Presbyterian,"-73.955346","40.764794",Diagnostic and Treatment Center Extension Clinic,"1283 York Avenue, 7th Floor",New York,New York,"10065"
Richmond University Medical Center,"-74.106674","40.635807",Hospital,355 Bard Avenue,Staten Island,New York,"10310"
PS 199,"-73.920354","40.843334",School Based Hospital Extension Clinic,1449 Shakespeare Ave,Bronx,New York,"10452"
Canarsie Multi Service Center,"-73.898193","40.65073",Hospital Extension Clinic,567 East 105th St,Brooklyn,New York,"11218"
Peninsula Community Health Center,"-73.856194","40.823139",Diagnostic and Treatment Center Extension Clinic,1967 Turnbull Avenue,Bronx,New York,"10473"
Auburn Family Assessment Center,"-73.976624","40.694435",Diagnostic and Treatment Center Extension Clinic,39 Auburn Place,Brooklyn,New York,"10005"
William F. Ryan Community Health Center,"-73.968834","40.794228",Diagnostic and Treatment Center,110 West 97th Street,New York,New York,"10025"
"Century Medical and Dental Center, Inc.","-73.986132","40.689703",Diagnostic and Treatment Center Extension Clinic,200 Livingston Street,Brooklyn,New York,"11201"
Montefiore Medical Center - Wellness Center at Waters Place,"-73.840885","40.845941",Hospital Extension Clinic,1510 Waters Place,Bronx,New York,"10461"
Avantus Harlem Green Dialysis Center,"-73.95536","40.814388",Diagnostic and Treatment Center Extension Clinic,488 West 128th Street,New York,New York,"10065"
Greenwich House Methadone,"-73.997757","40.725502",Diagnostic and Treatment Center,190 Mercer Street,New York,New York,"10012"
PS7 - MS Stern,"-73.939255","40.800926",School Based Diagnostic and Treatment Center Extension Clinic,160 East 120th Street,New York,New York,"10035"
Brookdale Family Care Center at Penn Ave,"-73.886772","40.653175",Hospital Extension Clinic,1110 Pennsylvania Avenue,Brooklyn,New York,"11207"
P.S. 18,"-74.117409","40.635918",School Based Hospital Extension Clinic,221 Broadway,Staten Island,New York,"10310"
P. S. 142,"-73.984283","40.718544",School Based Diagnostic and Treatment Center Extension Clinic,100 Attorney Street,New York,New York,"10002"
Clinton Hill Dialysis,"-73.952789","40.679501",Diagnostic and Treatment Center Extension Clinic,1275 Bedford Avenue,Brooklyn,New York,"11216"
New York Preventive Health Center,"-73.850571","40.722218",Diagnostic and Treatment Center,68-60 Austin Street,Forest Hills,New York,"11375"
Monroe Academy Campus,"-73.899719","40.83136",School Based Diagnostic and Treatment Center Extension Clinic,1300 Boyton Avenue,Bronx,New York,"10472"
PS 188,"-74.000163","40.577161",School Based Hospital Extension Clinic,3314 Neptune Avenue,Brooklyn,New York,"11224"
Main Street Radiology at Bayside LLC,"-73.894317","40.754333",Diagnostic and Treatment Center Extension Clinic,72-06 Northern Blvd,Jackson Heights,New York,"11372"
Metro Community Health Center Staten Island,"-74.167397","40.627441",Diagnostic and Treatment Center Extension Clinic,2324 Forest Ave,Staten Island,New York,"10303"
New York Eye & Ear Outpatient Center,"-73.984802","40.732468",Hospital Extension Clinic,230 Second Avenue,New York,New York,"10003"
PS 135 Sheldon A. Brookner,"-73.932977","40.653418",School Based Hospital Extension Clinic,684 Linden Boulevard,Brooklyn,New York,"11203"
Ponce de Leon Elementary School/PS 161,"-73.905464","40.814877",School Based Diagnostic and Treatment Center Extension Clinic,628 Tinton Avenue,Bronx,New York,"10459"
"Queens Endoscopy ASC, LLC","-73.792709","40.773457",Diagnostic and Treatment Center,Utopia Center,Flushing,New York,"11366"
PS 382,"-73.90274","40.85479",School Based Diagnostic and Treatment Center Extension Clinic,125 East 181st Street,Bronx,New York,"10453"
Cassena Care Dialysis at Morningside,"-73.85951","40.856526",Diagnostic and Treatment Center,1000 Pelham Parkway South,Bronx,New York,"10461"
NYU Langone Perlmutter Cancer Center - Midwood,"-73.9636","40.607414",Hospital Extension Clinic,902 Quentin Road,Brooklyn,New York,"11223"
Century Medical and Dental Center,"-73.959953","40.654026",Diagnostic and Treatment Center Extension Clinic,770 Flatbush Avenue,Brooklyn,New York,"11226"
James Monroe Annex,"-73.878349","40.83139",School Based Diagnostic and Treatment Center Extension Clinic,1551 East 172nd Street,Bronx,New York,"10472"
Choices Women's Medical Center Inc,"-73.80677","40.701717",Diagnostic and Treatment Center,147-32 Jamaica Avenue,Jamaica,New York,"11435"
Family Health Center Bushwick High School,"-73.910637","40.696823",Hospital Extension Clinic,400 Irving Avenue,Brooklyn,New York,"11237"
FMS-Eastchester,"-73.842687","40.849448",Diagnostic and Treatment Center Extension Clinic,"1776 Eastchester Road, Suite 240",Bronx,New York,"10461"
Ambulatory Surgery Center of Greater New York,"-73.855171","40.858292",Diagnostic and Treatment Center,1101 Pelham Parkway N,Bronx,New York,"10469"
A Merryland Health Center,"-73.98475","40.57718",Diagnostic and Treatment Center,2873 West 17th Street,Brooklyn,New York,"11224"
Conduit Avenue Dialysis,"-73.757345","40.665448",Diagnostic and Treatment Center Extension Clinic,219-10 South Conduit Avenue,Springfield Gardens,New York,"11413"
Mount Sinai West,"-73.987785","40.770092",Hospital,1000 10th Avenue,New York,New York,"10019"
Alegria Operating LLC,"-73.90645","40.83034",Diagnostic and Treatment Center,3475 Third Avenue,Bronx,New York,"10456"
HSS Dana Center,"-73.952354","40.767101",Hospital Extension Clinic,510 East 73rd Street,New York,New York,"10021"
Third Avenue Family Health Center,"-73.925056","40.811897",Diagnostic and Treatment Center Extension Clinic,2604 Third Avenue,Bronx,New York,"10451"
SurgiCare of Brooklyn,"-74.009987","40.651363",Diagnostic and Treatment Center,313 43rd Street,Brooklyn,New York,"11232"
Calvary Hospital,"-74.021033","40.646444",Hospital,150 55th Street,Brooklyn,New York,"11220"
"Community Health Center of Richmond, Inc.","-74.135056","40.635456",Diagnostic and Treatment Center,235 Port Richmond Avenue,Staten Island,New York,"10302"
Upper Room AIDS Ministry ADHC,"-73.946495","40.807384",Diagnostic and Treatment Center,123-125 West 124th Street,New York,New York,"10027"
Lenox Hill Hospital Extension Clinic at MEETH,"-73.963821","40.764416",Hospital Extension Clinic,210 East 64th Street,New York,New York,"10021"
"Kips Bay Endoscopy Center, LLC","-73.977951","40.742046",Diagnostic and Treatment Center,535 Second Avenue,New York,New York,"10016"
Downtown Bronx ASC,"-73.911774","40.825321",Diagnostic and Treatment Center,951 Brook Avenue,Bronx,New York,"10451"
"Hudson Surgery Center, LLC","-73.9967","40.74439",Diagnostic and Treatment Center,234-238 East 23rd Street,New York,New York,"10010"
FMS-City Dialysis Center,"-73.947311","40.792744",Diagnostic and Treatment Center Extension Clinic,105 East 106th Street,New York,New York,"10029"
Center for Womens Health,"-74.085876","40.583263",Hospital Extension Clinic,440 Seaview Avenue,Staten Island,New York,"10305"
Physicians Choice Surgicenter,"-73.852402","40.667561",Diagnostic and Treatment Center,82-12 151st Avenue,Howard Beach,New York,"11414"
Hillside Polymedic Diagnostic and Treatment Center,"-73.774277","40.714844",Diagnostic and Treatment Center,18730 Hillside Avenue,Jamaica,New York,"11432"
New York Neuro & Rehab Center,"-73.932274","40.857269",Diagnostic and Treatment Center,4468-4474 Broadway,New York,New York,"10040"
Staten Island Dialysis Center,"-74.080566","40.598705",Diagnostic and Treatment Center Extension Clinic,1139 Hylan Boulevard,Staten Island,New York,"10305"
NYU Langone Orthopedic Hospital,"-73.98307","40.734127",Hospital,301 East 17th Street,New York,New York,"10003"
Ida G Israel Community Health Center,"-73.985646","40.576097",Hospital Extension Clinic,2925 West 19th Street,Brooklyn,New York,"11224"
BMS ISIS at Bristol,"-73.911385","40.66497",Diagnostic and Treatment Center Extension Clinic,"259 Bristol Street, 3rd Floor",Brooklyn,New York,"11212"
Staten Island South Dialysis,"-74.176109","40.540428",Diagnostic and Treatment Center Extension Clinic,30 Sneden Avenue,Staten Island,New York,"10312"
Intermediate School 145,"-73.88752","40.754391",School Based Diagnostic and Treatment Center Extension Clinic,33-34 80th Street,Jackson Heights,New York,"11372"
Laurance S Rockefeller OP Pavilion,"-73.970634","40.758144",Hospital Extension Clinic,160 East 53rd Street,New York,New York,"10022"
Gan Day Care,"-73.983765","40.636234",School Based Diagnostic and Treatment Center Extension Clinic,4206 15th Avenue,Brooklyn,New York,"11219"
Planned Parenthood Margaret Sanger Center,"-73.993538","40.725521",Diagnostic and Treatment Center,26 Bleecker Street,New York,New York,"10012"
Beth Israel Med Center 3-C,"-73.980141","40.739037",Hospital Extension Clinic,433 2nd Avenue,New York,New York,"10010"
Dyker Heights Dialysis Center,"-74.010681","40.612186",Diagnostic and Treatment Center Extension Clinic,1435 86th Street,Brooklyn,New York,"11228"
Bensonhurst Clinic Treatment Program,"-74.003136","40.606895",Hospital Extension Clinic,8620 18th Avenue,Brooklyn,New York,"11214"
Union Square Eye Care - Harlem,"-73.943517","40.801553",Diagnostic and Treatment Center,1815 Madison Avenue,New York,New York,"10035"
Eleanor Roosevelt Houses Child HC,"-73.934799","40.693974",Diagnostic and Treatment Center Extension Clinic,388 Pulaski Street,Brooklyn,New York,"11206"
PHC,"-0.3735345","53.7845549",Diagnostic and Treatment Center,4424-4426 18th Avenue,Brooklyn,New York,"11204"
Broadway Family Health Center,"-73.925835","40.691582",Diagnostic and Treatment Center Extension Clinic,1238 Broadway,Brooklyn,New York,"11221"
UHB Family Health Services,"-73.934166","40.663326",Hospital Extension Clinic,840 Lefferts Avenue,Brooklyn,New York,"11203"
Amsterdam Center,"-73.971588","40.792492",Diagnostic and Treatment Center Extension Clinic,690 Amsterdam Avenue,New York,New York,"10025"
Primary Care Network,"-73.890228","40.86064",Hospital Extension Clinic,One Fordham Plaza,Bronx,New York,"10458"
Jamaica Hospital Mental Health Clinic,"-73.815239","40.699696",Hospital Extension Clinic,90-09 Van Wyck Expressway,Jamaica,New York,"11418"
SBH Health and Wellness Center,"-73.891304","40.853688",Hospital Extension Clinic,4507 Third Avenue,Bronx,New York,"10457"
Middle School 142,"-73.840729","40.885578",School Based Hospital Extension Clinic,3750 Baychester Avenue,Bronx,New York,"10466"
Juan Morel Campos Campus,"-73.954386","40.702898",School Based Hospital Extension Clinic,215 Heyward Street,Brooklyn,New York,"11206"
Hutchinson River Dialysis,"-73.84362","40.86058",Diagnostic and Treatment Center Extension Clinic,2331 Eastchester Road,Bronx,New York,"10469"
Interfaith Medical Center,"-73.937515","40.67794",Hospital,1545 Atlantic Avenue,Brooklyn,New York,"11213"
Port Richmond High School,"-74.142015","40.634843",School Based Hospital Extension Clinic,85 St. Joseph's Avenue,Staten Island,New York,"10302"
Montefiore Medical Center - Montefiore Westchester Square,"-73.848244","40.840431",Hospital,2475 St. Raymond Avenue,Bronx,New York,"10461"
BMS at Ashford,"-73.883141","40.665783",Diagnostic and Treatment Center Extension Clinic,650 Ashford Street,Brooklyn,New York,"11207"
Ralph Lauren Center for Cancer Care and Prevention,"-73.941093","40.804849",Hospital Extension Clinic,1919 Madison Avenue,New York,New York,"10035"
Methadone 1,"-73.880089","40.88406",Hospital Extension Clinic,3550 Jerome Avenue,Bronx,New York,"10467"
Metro Community Health Center Bronx,"-73.882599","40.838833",Diagnostic and Treatment Center,979 Cross Bronx Expressway Service Road,Bronx,New York,"10460"
Burke Rehab Sports&Physical Medicine,"-73.835518","40.844379",Hospital Extension Clinic,2826 Westchester Avenue,Bronx,New York,"10461"
FMS-Queens Kidney Care,"-73.901855","40.715935",Diagnostic and Treatment Center Extension Clinic,60-40 Fresh Pond Road,Maspeth,New York,"11378"
Maimonides Breast Center,"-74.012894","40.633896",Hospital Extension Clinic,745 64th Street,Brooklyn,New York,"11220"
Richmond Hill Clinic,"-73.820709","40.699528",Diagnostic and Treatment Center Extension Clinic,130-20 89th Road,Richmond Hill,New York,"11418"
Medcare LLC,"-73.956383","40.689243",Diagnostic and Treatment Center,468 Lafayette Avenue,Brooklyn,New York,"11205"
Maimonides Adult and Pediatric Care Newkirk Avenue,"-73.964157","40.635189",Hospital Extension Clinic,1401 Newkirk Avenue,Brooklyn,New York,"11226"
St. Joseph's Medical Center Imaging Center,"-73.908279","40.879662",Hospital Extension Clinic,3050 Corlear Avenue,Bronx,New York,"10463"
Park Avenue Family Health Center,"-73.8993","40.847176",Diagnostic and Treatment Center Extension Clinic,4196 Park Avenue,Bronx,New York,"10457"
Bronx Health Center,"-73.924967","40.81473",Diagnostic and Treatment Center,253 East 142nd Street,Bronx,New York,"10451"
P.S. 31,"-74.148674","40.586258",School Based Hospital Extension Clinic,55 Layton Street,Staten Island,New York,"10310"
Settlement Health Plaza,"-73.938109","40.790065",Diagnostic and Treatment Center Extension Clinic,2070 First Avenue,New York,New York,"10029"
Mobile Dental Center,"-73.95605","40.81763",Diagnostic and Treatment Center Extension Clinic,78 Old Broadway,New York,New York,"10027"
Project Renewal Inc Mobile Medical Van (Care Van),"-73.991211","40.726082",Mobile Diagnostic and Treatment Center Extension Clinic,8 East Third Street,New York,New York,"10003"
Moshenyat Gastroenterology Center,"-73.954614","40.614128",Diagnostic and Treatment Center,1958 Ocean Avenue,Brooklyn,New York,"11230"
Ambulatory Care Pavilion,"-74.109016","40.634666",Hospital Extension Clinic,800 Castleton Avenue,Staten Island,New York,"10310"
Doral Medical and Multispecialty Facility,"-73.906768","40.670508",Diagnostic and Treatment Center,1797 Pitkin Avenue,Brooklyn,New York,"11212"
Narco Freedom-Grand Concourse,"-73.929298","40.813755",Diagnostic and Treatment Center Extension Clinic,250 Grand Concourse,Bronx,New York,"10451"
Park Tree Community Health Center,"-73.88632","40.842959",Diagnostic and Treatment Center Extension Clinic,866 East Tremont Avenue,Bronx,New York,"10460"
The Floating Hospital,"-73.946329","40.756084",Diagnostic and Treatment Center Extension Clinic,10-29 41st Avenue,Long Island City,New York,"11101"
FMS-Morris Park,"-73.844727","40.851326",Diagnostic and Treatment Center Extension Clinic,1325 Morris Park Avenue,Bronx,New York,"10461"
Sun River Health Suthpin Boulevard,"-73.803658","40.695549",Diagnostic and Treatment Center Extension Clinic,105-04 Sutphin Boulevard,Jamaica,New York,"11435"
Manhattan Reproductive Surgery Center,"-74.012376","40.707044",Diagnostic and Treatment Center,"65 Broadway, 21st Floor",New York,New York,"10006"
Lincoln Medical & Mental Health Center,"-73.92421","40.817661",Hospital,234 East 149th Street,Bronx,New York,"10451"
CES 126,"-73.928757","40.835983",School Based Diagnostic and Treatment Center Extension Clinic,175 West 166th Street,Bronx,New York,"10452"
Maimonides Cardiology Outpatient Center,"-73.972816","40.638439",Hospital Extension Clinic,421 Ocean Parkway,Brooklyn,New York,"11218"
Springfield Community Health Center,"-73.754693","40.678499",Diagnostic and Treatment Center Extension Clinic,134-64 Springfield Boulevard,Springfield Gardens,New York,"11413"
Community Health Academy of the Heights (Phoenix),"-73.941861","40.83353",School Based Diagnostic and Treatment Center Extension Clinic,504 West 158th Street,New York,New York,"10032"
PS 223,"-73.790395","40.674678",School Based Hospital Extension Clinic,125-20 Sutphin Blvd,Jamaica,New York,"11434"
PS 288,"-73.992017","40.574428",School Based Hospital Extension Clinic,2950 West 25th Street,Brooklyn,New York,"11224"
NYU Langone Rusk Rehabilitation Brooklyn,"-74.021255","40.642466",Hospital Extension Clinic,230 60th Street,Brooklyn,New York,"11200"
NYP/Queens Obstetrics Center,"-73.805344","40.739002",Hospital Extension Clinic,"163-03 Horace Harding Expressway, 2nd & 5th Floors",Fresh Meadows,New York,"11365"
South Beach Psychiatric Center,"-74.078171","40.579605",Hospital Extension Clinic,777 Seaview Avenue,Staten Island,New York,"10305"
Staten Island Artificial Kidney Center,"-74.160187","40.610657",Diagnostic and Treatment Center,1550 Richmond Avenue,Staten Island,New York,"10314"
Methadone Clinic III,"-73.907028","40.854176",Hospital Extension Clinic,2058 Jerome Avenue,Bronx,New York,"10453"
CenterLight Healthcare D&TC - Grand Street Site,"-73.987213","40.716",Diagnostic and Treatment Center Extension Clinic,375 Grand Street,New York,New York,"10002"
Urban Health Plan,"-73.926056","40.810875",Diagnostic and Treatment Center Extension Clinic,271 East 138th Street,Bronx,New York,"10454"
Brookdale Family Care Center-New Lots,"-73.890541","40.663029",Diagnostic and Treatment Center Extension Clinic,465 New Lots Avenue,Brooklyn,New York,"11207"
HSS East Side Outpatient Center,"-73.961976","40.763998",Hospital Extension Clinic,1233 Second Avenue,New York,New York,"10065"
P.S. 092 Adrian Hegeman,"-73.953833","40.656282",School Based Hospital Extension Clinic,601 Parkside Avenue,Brooklyn,New York,"11226"
Brook Plaza Ambulatory Surgical Center Inc,"-73.927483","40.625282",Diagnostic and Treatment Center,1901 Utica Avenue,Brooklyn,New York,"11234"
NYP/Queens Special Care Center,"-73.8273","40.742966",Hospital Extension Clinic,"138-47 Horace Harding Expressway, 2nd floor",Flushing,New York,"11355"
Bronx Medical and Wellness Center,"-73.922493","40.836543",Diagnostic and Treatment Center Extension Clinic,1227 Edward L. Grant Highway,Bronx,New York,"10452"
Louis Brandeis High School,"-73.972977","40.785164",School Based Hospital Extension Clinic,145 West 84th Street,New York,New York,"10024"
Betances Health Center at Henry Street Settlement,"-73.98513","40.712601",Diagnostic and Treatment Center Extension Clinic,40 Montgomery Street,New York,New York,"10002"
Brooklyn Plaza Med Ctr Whitman-Ingersoll-Farragut H C,"-73.976097","40.693428",Diagnostic and Treatment Center Extension Clinic,297 Myrtle Avenue,Brooklyn,New York,"11205"
Community Health Initiatives Inc.,"-73.98306","40.577153",Diagnostic and Treatment Center,"2882 West 15th Street, Lower Level",Brooklyn,New York,"11224"
P S 64,"-73.981216","40.724247",School Based Diagnostic and Treatment Center Extension Clinic,600 E 6th Street,New York,New York,"10009"
New York-Presbyterian/Lower Manhattan Hospital,"-74.005486","40.710426",Hospital,170 William Street,New York,New York,"10038"
University Hospital of Brooklyn,"-73.945045","40.654518",Hospital,445 Lenox Road,Brooklyn,New York,"11203"
FMS-South Queens Dialysis Center,"-73.784019","40.704983",Diagnostic and Treatment Center Extension Clinic,175-37 Liberty Avenue,Jamaica,New York,"11433"
Path Center,"-73.957082","40.650342",Hospital Extension Clinic,2244 Church Avenue,Brooklyn,New York,"11226"
Sun River Health Church Avenue,"-73.955406","40.650112",Diagnostic and Treatment Center Extension Clinic,2412 Church Avenue,Brooklyn,New York,"11226"
ArchCare Senior Life at San Vicente de Paul Catholic Healthcare Center,"-73.896103","40.81908",Diagnostic and Treatment Center Extension Clinic,900 Intervale Avenue,Bronx,New York,"10459"
Beth Israel Med Center 1-E 2-F 3-G,"-73.980194","40.73896",Hospital Extension Clinic,429 2nd Avenue,New York,New York,"10010"
Sunset Park Familly Health Center,"-74.020584","40.645657",Hospital Extension Clinic,5610 2nd Avenue,Brooklyn,New York,"11220"
"Carnegie Hill Institute, Inc","-73.953506","40.783539",Diagnostic and Treatment Center,116 East 92nd Street,New York,New York,"10128"
Williamsburg Dialysis Center,"-73.945256","40.702195",Diagnostic and Treatment Center,89 Bartlett Street,Brooklyn,New York,"11206"
Claremont Family Health Care Center,"-73.906052","40.844604",Diagnostic and Treatment Center Extension Clinic,264 East 174th Street,Bronx,New York,"10457"
Lower Manhattan Dialysis Center-2,"-73.98568","40.735233",Diagnostic and Treatment Center,187 Third Avenue,New York,New York,"10003"
Sanford R Nalitt Inst for Cancer,"-74.086708","40.586643",Hospital Extension Clinic,256 Mason Avenue,Staten Island,New York,"10305"
Marie Curie Campus,"-73.901516","40.875451",School Based Diagnostic and Treatment Center Extension Clinic,"X244 and X237, 120 West 231st Street",Bronx,New York,"10463"
CHN - Community League Center,"-73.942261","40.832893",Diagnostic and Treatment Center Extension Clinic,511 West 157th Street,New York,New York,"10032"
St Martin De Porres Clinic,"-73.896873","40.664169",Hospital Extension Clinic,480 Alabama Avenue,Brooklyn,New York,"11207"
Odyssey House of New York Inc,"-73.995316","40.727074",Diagnostic and Treatment Center,666 Broadway  Tenth Floor,New York,New York,"10012"
Brooklyn Gardens Dialysis Center,"-73.925751","40.678588",Diagnostic and Treatment Center,835 Herkimer Street,Brooklyn,New York,"11233"
Henry Street School,"-73.98631","40.713604",School Based Diagnostic and Treatment Center Extension Clinic,220 Henry Street,Manhattan,New York,"10002"
William F Ryan Community Health Center Inc,"-73.968941","40.795902",Diagnostic and Treatment Center Extension Clinic,801 Amsterdam Avenue,New York,New York,"10025"
Maimonides Adult Primary Care 57th Street,"-73.997711","40.631046",Hospital Extension Clinic,1250 57th St,Brooklyn,New York,"11219"
Methadone Clinic III,"-73.903755","40.669186",Hospital Extension Clinic,211-221 Powell Street,Brooklyn,New York,"11212"
Woodside Houses Child Health Center,"-73.910857","40.753465",Diagnostic and Treatment Center Extension Clinic,50-53 Newton Road,Woodside,New York,"11377"
Bedford Health Clinic,"-73.941377","40.685631",Diagnostic and Treatment Center Extension Clinic,485 Throop Avenue,Brooklyn,New York,"11221"
Staten Island University Hosp-North,"-74.086998","40.584141",Hospital,475 Seaview Avenue,Staten Island,New York,"10305"
Main Street Radiology at Bayside,"-73.829971","40.76186",Diagnostic and Treatment Center Extension Clinic,136-25 37th Avenue,Flushing,New York,"11354"
Project Renewal Inc. Mobile Medical Van (MedVan II),"-73.895985","40.8478",Mobile Diagnostic and Treatment Center Extension Clinic,514 East 178th Street,Bronx,New York,"10457"
Franklin Women's Shelter,"-73.905624","40.828342",Diagnostic and Treatment Center Extension Clinic,1122 Franklin Avenue,Bronx,New York,"10456"
Judson Health Center,"-73.995766","40.721695",Diagnostic and Treatment Center Extension Clinic,34 Spring Street,New York,New York,"10012"
Morris Heights Center 233rd Street,"-73.853622","40.892262",Diagnostic and Treatment Center Extension Clinic,825 East 233rd Street,Bronx,New York,"10466"
Jamaica Hospital Sleep Center,"-73.815895","40.700286",Hospital Extension Clinic,"Trump Pavilion, Lower Level",Jamaica,New York,"11418"
Far Rockaway HS Clinic,"-73.762741","40.601585",School Based Hospital Extension Clinic,821 Bay 25th Street,Far Rockaway,New York,"11691"
Montefiore Wakefield Behavioral Health and Substance Use Disorders Clinic,"-73.85759","40.900204",Hospital Extension Clinic,4401 Bronx Blvd,Bronx,New York,"10470"
RAMBAM Family Health Center,"-73.96315","40.617302",Diagnostic and Treatment Center Extension Clinic,1122 Chestnut Avenue,Brooklyn,New York,"11230"
FMS-Bayside Dialysis Center,"-73.782066","40.757553",Diagnostic and Treatment Center Extension Clinic,201-10 Northern Blvd,Bayside,New York,"11361"
PS 155-William Pacca,"-73.93605","40.797218",School Based Diagnostic and Treatment Center Extension Clinic,319 East 117th Street,New York,New York,"10035"
Lower Eastside Service Center Inc,"-73.995163","40.713696",Diagnostic and Treatment Center Extension Clinic,62 East Broadway,New York,New York,"10002"
Premier Healthcare D & T Center,"-73.998718","40.754345",Diagnostic and Treatment Center,220 East 42nd Street,New York,New York,"10017"
Morris High School,"-73.904419","40.827625",School Based Hospital Extension Clinic,1110 Boston Road,Bronx,New York,"10456"
HSS West Side ASC,"-73.991389","40.771095",Diagnostic and Treatment Center,600-610 West 58th Street,New York,New York,"10019"
HSS Sports Performance Center,"-73.952377","40.765446",Hospital Extension Clinic,525 East 71st Street,New York,New York,"10021"
PS18,"-73.922745","40.816223",School Based Hospital Extension Clinic,502 Morris Avenue,Bronx,New York,"10451"
CHN - C A B S Clinic,"-73.944572","40.705627",Diagnostic and Treatment Center Extension Clinic,94-98 Manhattan Avenue,Brooklyn,New York,"11206"
P.S. 96,"-73.937828","40.80032",School Based Hospital Extension Clinic,216 East 120th Street,New York,New York,"10035"
ParCare Community Health Network,"-73.958878","40.696579",Diagnostic and Treatment Center,445 Park Ave,Brooklyn,New York,"11205"
Allhealth D & T Center-Brooklyn,"-73.966454","40.630699",Diagnostic and Treatment Center Extension Clinic,1100 Coney Island Avenue,Brooklyn,New York,"11230"
"Doctors United, Inc.","-73.855682","40.893177",Diagnostic and Treatment Center Extension Clinic,741 East 233rd Street,Bronx,New York,"10466"
P.S. 335 Granville T. Woods,"-73.92798","40.674521",School Based Hospital Extension Clinic,130 Rochester Avenue,Brooklyn,New York,"11213"
Myrtle Avenue Family Health Center,"-73.832008","40.70023",Diagnostic and Treatment Center Extension Clinic,117-11 Myrtle Avenue,Richmond Hill,New York,"11418"
"New York Community Hospital of Brooklyn, Inc","-73.948967","40.613419",Hospital,2525 Kings Highway,Brooklyn,New York,"11229"
Joseph P Addabbo Family Health Center,"-73.793083","40.685352",Diagnostic and Treatment Center Extension Clinic,114-39 Sutphin Boulevard,Jamaica,New York,"11434"
South Bronx Dialysis Center,"-73.900246","40.848717",Diagnostic and Treatment Center Extension Clinic,1940 Webster Avenue,Bronx,New York,"10457"
PS 38 Pacific,"-73.983025","40.68536",School Based Hospital Extension Clinic,450 Pacific Street,Brooklyn,New York,"11231"
"Century Medical & Dental Center, Inc.","-73.973213","40.590153",Diagnostic and Treatment Center,260 Avenue X,Brooklyn,New York,"11223"
"New York GI Center, LLC","-73.842094","40.846287",Diagnostic and Treatment Center,1200 Waters Place,Bronx,New York,"10461"
SUNY-Parkside Dialysis Center,"-73.949722","40.656219",Hospital Extension Clinic,710 Parkside Ave,Brooklyn,New York,"11203"
Morrisania Diagnostic & Treatment Center,"-73.919319","40.837208",Diagnostic and Treatment Center,1225-1257 Gerard Ave,Bronx,New York,"10452"
Central Park Dialysis Center,"-73.951065","40.794212",Diagnostic and Treatment Center Extension Clinic,1249 5th Avenue,New York,New York,"10029"
Union Community Health Center,"-73.896179","40.860882",Diagnostic and Treatment Center,260 East 188th Street,Bronx,New York,"10458"
PS 13,"-73.893684","40.663635",School Based Hospital Extension Clinic,557 Pennsylvania Avenue,Brooklyn,New York,"11207"
PS 279,"-73.905052","40.8549",School Based Diagnostic and Treatment Center Extension Clinic,2100 Walton Avenue,Bronx,New York,"10453"
"Newtown Dialysis Center, Inc","-73.92173","40.768738",Diagnostic and Treatment Center,29-20 Newtown Avenue,Astoria,New York,"11102"
Doctor's United Inc.-Bronx,"-73.884384","40.842155",Diagnostic and Treatment Center Extension Clinic,907 E. Tremont Avenue,Bronx,New York,"10451"
Premier Healthcare Bayside,"-73.771767","40.759819",Diagnostic and Treatment Center Extension Clinic,211-11 Northern Boulevard,Bayside,New York,"11360"
X 113,"-73.860834","40.880854",School Based Hospital Extension Clinic,3710 Barnes Ave,Bronx,New York,"10467"
J.H.S. 062 Ditmas,"-73.97124","40.638574",School Based Hospital Extension Clinic,700 Cortelyou Road,Brooklyn,New York,"11218"
Park West Educational Campus,"-73.992892","40.765225",School Based Diagnostic and Treatment Center Extension Clinic,525 West 50th St,New York,New York,"10019"
Campus Magnet High School,"-73.745186","40.698013",School Based Hospital Extension Clinic,207-01 116th Ave,Cambria Heights,New York,"11411"
IS45 Educational Campus,"-73.933101","40.799306",School Based Hospital Extension Clinic,2351 1st Avenue,Manhattan,New York,"10035"
Weill Cornell Imaging at NYP-61 Street,"-73.959633","40.760326",Diagnostic and Treatment Center Extension Clinic,425 East 61 Street,New York,New York,"10021"
Rogosin Kidney Center,"-73.954529","40.765518",Diagnostic and Treatment Center,505 East 70th Street 2nd Fl,New York,New York,"10021"
Low Lead Clinic,"-73.882523","40.878334",Hospital Extension Clinic,91 East Mosholu Parkway,Bronx,New York,"10467"
Sun River Health The Hub,"-73.915253","40.815529",Diagnostic and Treatment Center Extension Clinic,459 East 149th Street,Bronx,New York,"10455"
Bedford Stuyvesant Family Health Center Inc,"-73.942635","40.679958",Diagnostic and Treatment Center,1456 Fulton Street,Brooklyn,New York,"11216"
PS 347,"-73.981506","40.738209",School Based Hospital Extension Clinic,225 East 23rd Street,New York,New York,"10016"
Century Medical & Dental Center,"-73.99267","40.77044",Diagnostic and Treatment Center Extension Clinic,827 11th Avenue,New York,New York,"10019"
JHS 117 (Alternative Education Complex),"-73.941544","40.792706",School Based Hospital Extension Clinic,240 East 109th Street,New York,New York,"10029"
Jacobi Medical Center,"-73.846741","40.857388",Hospital,1400 Pelham Parkway,Bronx,New York,"10461"
X 174,"-73.856491","40.814825",School Based Hospital Extension Clinic,456 White Plains Rd,Bronx,New York,"10473"
Flatbush Family Health Center at NYU Langone,"-73.945496","40.650967",Hospital Extension Clinic,3414 Church Avenue,Brooklyn,New York,"11203"
Harlem Children's Zone Promise Academy 1,"-73.948166","40.812549",School Based Diagnostic and Treatment Center Extension Clinic,"245 W. 129th Street, 1st floor",New York,New York,"10027"
Health Center at Gunhill,"-73.857873","40.874581",Diagnostic and Treatment Center Extension Clinic,1012 East Gunhill Road,Bronx,New York,"10469"
Chemical Dependence Treatment Program,"-74.077621","40.62706",Hospital Extension Clinic,111 Water Street,Staten Island,New York,"10304"
START Treatment & Recovery Centers,"-73.899811","40.66544",Diagnostic and Treatment Center Extension Clinic,494-500 Dumont Ave,Brooklyn,New York,"11207"
START Treatment & Recovery Centers,"-73.985657","40.697178",Diagnostic and Treatment Center,22 Chapel Street,Brooklyn,New York,"11201"
J-Cap Inc Thomas & Marie White Health Center,"-73.792503","40.681648",Diagnostic and Treatment Center,116-30 Sutphin Blvd,Jamaica,New York,"11434"
Intermediate School 164 Edward W. Stitt,"-73.937088","40.836563",School Based Hospital Extension Clinic,401 West 164th Street,New York,New York,"10032"
Psych/Alcoholism Treatment Pgm,"-74.085442","40.583042",Hospital Extension Clinic,450 Seaview Avenue,Staten Island,New York,"10305"
NYU Langone Ambulatory Surgery Center,"-73.985752","40.717055",Hospital Extension Clinic,171 Delancey Street,New York,New York,"10002"
University Hospital of Brooklyn - SUNY Downstate at Bay Ridge,"-74.023712","40.615116",Hospital Extension Clinic,699 92nd Street,Brooklyn,New York,"11228"
Erasmus Hall High School,"-73.958427","40.649574",School Based Hospital Extension Clinic,911 Flatbush Avenue,Brooklyn,New York,"11226"
"River Renal Services, Inc","-73.976509","40.739605",Diagnostic and Treatment Center,462 First Avenue,New York,New York,"10016"
Michael Callen-Audre Lorde Community Health Center,"-74.003014","40.743156",Diagnostic and Treatment Center,356 West 18th Street,New York,New York,"10011"
C.I.S. 303,"-73.916054","40.849052",School Based Diagnostic and Treatment Center Extension Clinic,1700 Macombs Rd,Bronx,New York,"10453"
Corona District Health Center,"-73.872088","40.754088",Diagnostic and Treatment Center Extension Clinic,34-33 Junction Boulevard,Corona,New York,"11372"
P S 8,"-73.883621","40.87252",School Based Hospital Extension Clinic,3010 Briggs Avenue,Bronx,New York,"10458"
STD Center,"-73.879616","40.876602",Hospital Extension Clinic,3230 Bainbridge Avenue,Bronx,New York,"10467"
START Treatment & Recovery Centers,"-73.946411","40.807346",Diagnostic and Treatment Center Extension Clinic,119 West 124th Street,New York,New York,"10027"
BronxCare Third Avenue Medical and Dental Practice,"-73.921035","40.814353",Diagnostic and Treatment Center Extension Clinic,2739-2745 3rd Avenue,Bronx,New York,"10451"
Premium Health Peds Center,"-73.99167","40.628939",Diagnostic and Treatment Center Extension Clinic,5506 15th Avenue,Brooklyn,New York,"11219"
35th Street Health Center,"-73.992867","40.752907",Diagnostic and Treatment Center Extension Clinic,500 Eighth Avenue  3rd Floor,New York,New York,"10018"
7th Avenue Family Heatlh Center at NYU Langone,"-74.006058","40.642391",Hospital Extension Clinic,5008 7th Avenue,Brooklyn,New York,"11220"
"SurgiCare of Manhattan, LLC","-73.972107","40.749851",Diagnostic and Treatment Center,800 Second Avenue,New York,New York,"10017"
Mount Sinai Brooklyn Ambulatory Infusion Center,"-73.943583","40.617576",Hospital Extension Clinic,3131 Kings Highway,Brooklyn,New York,"11234"
Williamsbridge Dialysis Center,"-73.866557","40.878051",Diagnostic and Treatment Center Extension Clinic,"3525 White Plains Road, Suite B",Bronx,New York,"10467"
The Institute for Family Health at Westchester Square,"-73.841347","40.839302",Diagnostic and Treatment Center Extension Clinic,1420 Ferris Place,Bronx,New York,"10461"
Memorial Sloan Kettering 60th Street Outpatient Center,"-73.971374","40.764243",Hospital Extension Clinic,16 East 60th Street,New York,New York,"10022"
St. Lawrence Community Health Center,"-73.867867","40.831394",Diagnostic and Treatment Center Extension Clinic,1764-1766 Westchester Avenue,Bronx,New York,"10472"
Floating Hospital (Incorporated),"-73.90306","40.77393",Diagnostic and Treatment Center,21-01 41st Avenue,Long Island City,New York,"11101"
"Lafayette Medical Approach, LLC","-73.996964","40.722435",Diagnostic and Treatment Center,233 Lafayette Street,New York,New York,"10012"
Maimonides Cancer Center,"-74.011429","40.633774",Hospital Extension Clinic,6300 Eighth Avenue,Brooklyn,New York,"11220"
Thelma C. Davidson Adair Medical/Dental clinic,"-73.953293","40.809978",Diagnostic and Treatment Center Extension Clinic,565 Manhattan Avenue,New York,New York,"10027"
Christopher Columbus High School Campus,"-73.860725","40.860435",School Based Hospital Extension Clinic,925 Astor Avenue,Bronx,New York,"10469"
Ramon Velez Health Center,"-73.907143","40.814598",Diagnostic and Treatment Center Extension Clinic,754 East 151st Street,Bronx,New York,"10459"
HSS Brooklyn Outpatient Center,"-74.011391","40.655578",Hospital Extension Clinic,148-168 39th Street,Brooklyn,New York,"11232"
South Brooklyn Endoscopy Center,"-73.980148","40.607971",Diagnostic and Treatment Center,214 Avenue P,Brooklyn,New York,"11204"
Burke Rehabilitation Outpatient Clinic-Hutch Metro,"-73.837368","40.853553",Hospital Extension Clinic,1250 Waters Place,Bronx,New York,"10461"
Blavatnik Family - Chelsea Medical Center at Mount Sinai,"-74.003242","40.741028",Hospital Extension Clinic,325 West 15th Street,New York,New York,"10011"
Montefiore-Einstein Cancer Center,"-73.844734","40.846722",Hospital Extension Clinic,1695 Eastchester Road,Bronx,New York,"10461"
"Chinatown Dialysis Center, LLC","-73.998856","40.718533",Diagnostic and Treatment Center,213 Hester Street,New York,New York,"10013"
Broadway Clinic,"-73.926247","40.865959",Hospital Extension Clinic,4781-4783 Broadway,New York,New York,"10034"
St Johns Episcopal Hospital So Shore,"-73.752769","40.598637",Hospital,327 Beach 19th Street,Far Rockaway,New York,"11691"
The Birthing Center of NY Inc,"-74.025407","40.637515",Diagnostic and Treatment Center,6702-6706 Third Avenue,Brooklyn,New York,"11220"
Comprehensive Health Care Center,"-73.917442","40.825314",Hospital Extension Clinic,301-305 East 161st Street,Bronx,New York,"10451"
PS 217,"-73.966389","40.633968",School Based Hospital Extension Clinic,1100 Newkirk Ave,Brooklyn,New York,"11230"
HSS West Side Outpatient Center,"-73.991389","40.771095",Hospital Extension Clinic,600-610 West 58th Street,New York,New York,"10019"
Gouverneur Diagnostic and Treatment Center,"-73.987694","40.712891",Diagnostic and Treatment Center,227 Madison Street,New York,New York,"10002"
"Healthcare Choices NY, Inc.","-73.894158","40.679998",Diagnostic and Treatment Center Extension Clinic,179 Jamaica Avenue,Brooklyn,New York,"11207"
Starhill Clinic,"-73.917061","40.845989",Diagnostic and Treatment Center Extension Clinic,1600 Macombs Rd,Bronx,New York,"10452"
"Brooklyn Comprehensive Care Center, Inc.","-73.987053","40.597904",Diagnostic and Treatment Center,2501 86th Street,Brooklyn,New York,"11214"
Fresenius Kidney Care - Queens Village,"-73.74471","40.73027",Diagnostic and Treatment Center Extension Clinic,220-03 Hillside Avenue,Queens Village,New York,"11362"
NYU Langone Center for Women's Health,"-73.954582","40.777412",Hospital Extension Clinic,207 East 84th Street,New York,New York,"10028"
"New York Surgery Center Queens, LLC","-73.912224","40.758976",Diagnostic and Treatment Center,46-04 31st Avenue,Long Island City,New York,"11103"
"PBGS, LLC","-73.982219","40.689857",Diagnostic and Treatment Center,14 DeKalb Avenue,Brooklyn,New York,"11201"
Bronx Treatment Center,"-73.92278","40.838428",Diagnostic and Treatment Center,1250 Shakespeare Avenue,Bronx,New York,"10452"
PS 161/Pedro Albizu Campos,"-73.952904","40.817547",School Based Diagnostic and Treatment Center Extension Clinic,499 W 133 Street,New York,New York,"10027"
Bushwick Communicare Center,"-73.918319","40.694283",Diagnostic and Treatment Center Extension Clinic,335 Central Avenue,Brooklyn,New York,"11221"
NYU Langone Ambulatory Care Services,"-73.979767","40.73735",Hospital Extension Clinic,324 East 23rd Street,New York,New York,"10010"
Center for Womens Health,"-74.085876","40.583263",Hospital Extension Clinic,440 Seaview Avenue,Staten Island,New York,"10305"
South Beach Psychiatric Center,"-74.078171","40.579605",Hospital Extension Clinic,777 Seaview Avenue,Staten Island,New York,"10305"
In-Tech Academy,"-73.911943","40.877849",School Based Diagnostic and Treatment Center Extension Clinic,"2975 Tibbett Avenue, Room 123",Bronx,New York,"10453"
Samaritan Health Service University,"-73.926102","40.842339",Diagnostic and Treatment Center Extension Clinic,1381 University Ave,Bronx,New York,"10452"
NY Eye & Ear Infirmary Ext Clinic,"-73.981209","40.737343",Hospital Extension Clinic,380 Second Avenue,New York,New York,"10010"
Montefiore Radiology Ext Clinic,"-73.846642","40.845688",Hospital Extension Clinic,1635 Poplar Street,Bronx,New York,"10461"
"The Rogosin Institute at Methodist Home for Nursing and Rehabilitation, LLC","-73.903015","40.890535",Diagnostic and Treatment Center,4499 Manhattan College Parkway,Bronx,New York,"10471"
Beth Israel Med Center 8 & 8-D,"-73.946678","40.80822",Hospital Extension Clinic,140 West 125th Street,New York,New York,"10027"
"Inwood Diagnostic and Treatment Center, Inc.","-73.928177","40.862072",Diagnostic and Treatment Center,"47 Sickles Street, 1a",New York,New York,"10040"
United Wire Metal & Machine Medical Center,"-73.936602","40.756306",Diagnostic and Treatment Center,24-09 38th Avenue,Long Island City,New York,"11101"
Barnabas Hospital Methadone,"-73.890892","40.854229",Hospital Extension Clinic,4535-39 Third Avenue,Bronx,New York,"10457"
Long Island Jewish Medical Center Primary Care Extension Clinic,"-73.714841","40.745637",Hospital Extension Clinic,256-11 Union Turnpike,Glen Oaks,New York,"11004"
Brooklyn Health Center,"-73.978214","40.687495",Diagnostic and Treatment Center Extension Clinic,265 Ashland Place,Brooklyn,New York,"11217"
Lenox Hill Hospital,"-73.960632","40.773907",Hospital,100 East 77th Street,New York,New York,"10021"
"Century Medical and Dental Center, Inc.","-73.98051","40.693325",Diagnostic and Treatment Center Extension Clinic,180 Myrtle Avenue,Brooklyn,New York,"11201"
Cliffside Renal Dialysis,"-73.847572","40.775177",Diagnostic and Treatment Center,119-19 Graham Court,Flushing,New York,"11354"
New Alternatives for Children Inc,"-73.989883","40.744228",Diagnostic and Treatment Center,37 West 26th Street,New York,New York,"10010"
John Adams High School,"-73.83697","40.678603",School Based Hospital Extension Clinic,101-01 Rockaway Blvd,Jamaica,New York,"11417"
MHHC Mobile Unit,"-73.910629","40.85471",School Based Diagnostic and Treatment Center Extension Clinic,85 West Burnside Avenue,Bronx,New York,"10453"
FKC - St. Ann's Dialysis,"-73.910337","40.81975",Diagnostic and Treatment Center Extension Clinic,794 St. Ann's Avenue,Bronx,New York,"10467"
X 162 Campus,"-73.912203","40.815419",School Based Diagnostic and Treatment Center Extension Clinic,600 Saint Ann's Avenue,Bronx,New York,"10455"
Williamsbridge Home Dialysis Center,"-73.866557","40.878051",Diagnostic and Treatment Center Extension Clinic,"3525 White Plains Road, Suite A",Bronx,New York,"10467"
The Endoscopy Center of New York,"-73.950852","40.783381",Diagnostic and Treatment Center,201 East 93rd Street,New York,New York,"10128"
HSS Ambulatory Care Clinic,"-73.953827","40.766956",Hospital Extension Clinic,475 East 72nd Street,New York,New York,"10021"
Lenox Hill Hosp Center for Mental Health,"-73.957077","40.770443",Hospital Extension Clinic,1430 Second Avenue,New York,New York,"10021"
Primary Care Center,"-73.931084","40.765949",Hospital Extension Clinic,31-60 21st Street,Astoria,New York,"11102"
Harlem Hospital Center,"-73.940506","40.81435",Hospital,506 Lenox Avenue,New York,New York,"10037"
Island Ambulatory Surgery Center,"-73.961071","40.601518",Diagnostic and Treatment Center,2279 Coney Island Avenue,Brooklyn,New York,"11223"
West 17th Street Family Health Center,"-73.999835","40.740895",Diagnostic and Treatment Center Extension Clinic,230 West 17th Street,New York,New York,"10011"
NYU Langone Hospital-Brooklyn,"-74.020439","40.646591",Hospital,150 55th Street,Brooklyn,New York,"11220"
CenterLight Healthcare D&TC,"-73.828856","40.76248",Diagnostic and Treatment Center Extension Clinic,136-65 37th Avenue,Flushing,New York,"11354"
Fannie Lou Hamer,"-73.886526","40.83148",School Based Diagnostic and Treatment Center Extension Clinic,1001 Jennings Street,Bronx,New York,"10060"
Kingsbrook Jewish Medical Center Inc. - Rutland Nursing Home,"-73.934036","40.659435",Hospital Extension Clinic,585 Schenectady Avenue,Brooklyn,New York,"11203"
Montefiore North Broadway Dental Clinic,"-73.905674","40.876606",Hospital Extension Clinic,5500 Broadway,Bronx,New York,"10463"
Advanced Endoscopy Center,"-73.906044","40.87698",Diagnostic and Treatment Center,5500 Broadway,Bronx,New York,"10463"
PS 257,"-73.9422","40.702295",School Based Hospital Extension Clinic,60 Cook Street,Brooklyn,New York,"11206"
Port Richmond High School,"-74.142015","40.634843",School Based Hospital Extension Clinic,85 St. Joseph's Avenue,Staten Island,New York,"10302"
First Medcare Primary Care Center - School-Based Mobile Dental Equipment Clinic,"-73.908157","40.638958",School Based Diagnostic and Treatment Center Extension Clinic,8707 Flatlands Avenue,Brooklyn,New York,"11236"
Mount Hope Dialysis Center,"-73.899925","40.848656",Diagnostic and Treatment Center Extension Clinic,"1940 Webster Avenue, Suite 200",Bronx,New York,"10457"
Ezra Medical Center,"-73.999557","40.628975",Diagnostic and Treatment Center Extension Clinic,1260-78 60th Street,Brooklyn,New York,"11219"
Center for Health Services-Midwood,"-73.947487","40.631809",Hospital Extension Clinic,2171 Nostrand Ave,Brooklyn,New York,"11210"
East New York Dialysis,"-73.902938","40.657188",Diagnostic and Treatment Center Extension Clinic,54 New Lots Avenue,Brooklyn,New York,"11212"
Greater New York Endoscopy Surgical Center,"-73.946373","40.583855",Diagnostic and Treatment Center,2211 Emmons Avenue,Brooklyn,New York,"11235"
Bellevue Hospital Center,"-73.976509","40.739605",Hospital,462 First Avenue,New York,New York,"10016"
Brooklyn Dialysis Center,"-73.959801","40.678535",Diagnostic and Treatment Center,915 Dean Street,Brooklyn,New York,"11238"
Kingsbrook Jewish Medical Center,"-73.934036","40.659435",Hospital,585 Schenectady Avenue,Brooklyn,New York,"11203"
Sea Crest Dialysis Center,"-73.990344","40.572156",Diagnostic and Treatment Center,3035 West 24th Street,Brooklyn,New York,"11224"
Third Avenue Family Health Center,"-73.925056","40.811897",Diagnostic and Treatment Center Extension Clinic,2604 Third Avenue,Bronx,New York,"10451"
West Farms Dialysis,"-73.866844","40.840172",Diagnostic and Treatment Center Extension Clinic,1820 East Tremont  Avenue,Bronx,New York,"10460"
Borough Park Dialysis,"-73.987579","40.639481",Diagnostic and Treatment Center Extension Clinic,4102 13th Avenue,Brooklyn,New York,"11219"
Lasante Health Center,"-73.950775","40.655961",Diagnostic and Treatment Center,672 Parkside Avenue,Brooklyn,New York,"11226"
Main Street Radiology at Bayside LLC,"-73.783749","40.758674",Diagnostic and Treatment Center,32-25 Francis Lewis Blvd,Bayside,New York,"11361"
Mosholu Avenue Primary Care Center,"-73.902298","40.904621",Hospital Extension Clinic,5626 Mosholu Avenue,Bronx,New York,"10471"
Freedom Center of Queens,"-73.792292","40.725778",Diagnostic and Treatment Center Extension Clinic,176-35 Union Turnpike,Fresh Meadows,New York,"11366"
Planned Parenthood Project Street Beat Mobile Health Center,"-73.993538","40.725521",Mobile Diagnostic and Treatment Center Extension Clinic,26 Bleecker Street,New York,New York,"10012"
Union Health Center-ILGWU,"-73.994385","40.745678",Diagnostic and Treatment Center,275 Seventh Avenue,New York,New York,"10001"
Dental Center at North Central Bronx Hospital,"-73.881538","40.880512",Hospital Extension Clinic,3424 Kossuth Avenue,Bronx,New York,"10467"
Callen-Lorde Mobile Medical Unit,"-74.003119","40.743019",Mobile Diagnostic and Treatment Center Extension Clinic,356 West 18th Street,New York,New York,"10011"
WCIMA at Payson House,"-73.953384","40.771263",Hospital Extension Clinic,"1321 York Avenue, 1st Floor",New York,New York,"10021"
Housing Works East New York,"-73.874649","40.674953",Diagnostic and Treatment Center,2640 Pitkin Avenue,Brooklyn,New York,"11208"
Damian Family Care Center,"-73.815186","40.702442",Diagnostic and Treatment Center,137-50 Jamaica Avenue,Jamaica,New York,"11435"
Care for the Homeless,"-73.903506","40.672721",Diagnostic and Treatment Center Extension Clinic,91 Junius Street,Brooklyn,New York,"11212"
"Community Health Center of Richmond, Inc.","-74.138466","40.63139",Diagnostic and Treatment Center Extension Clinic,439 Port Richmond Avenue,Staten Island,New York,"10302"
Maimonides Women's Services 9th Avenue,"-73.998276","40.642967",Hospital Extension Clinic,4422 9th Avenue,Brooklyn,New York,"11219"
BronxCare Health & Wellness Center,"-73.909622","40.843124",Hospital Extension Clinic,199 Mount Eden Parkway,Bronx,New York,"10457"
MS061 Dr. Gladstone H. Atwell,"-73.948375","40.663889",School Based Hospital Extension Clinic,400 Empire Boulevard,Brooklyn,New York,"11225"
Midtown Surgery Center,"-73.961856","40.763335",Diagnostic and Treatment Center,1210 Second Avenue,New York,New York,"10017"
MS 293 - Global Studies,"-73.993423","40.685398",School Based Hospital Extension Clinic,284 Baltic Street,Brooklyn,New York,"11201"
Montefiore Rehab Medical Associates,"-73.844894","40.845501",Hospital Extension Clinic,1500 Blondell Avenue,Bronx,New York,"10461"
X148 Charles Drew Educational Campus,"-73.904429","40.833504",School Based Diagnostic and Treatment Center Extension Clinic,3630 Third Ave,Bronx,New York,"10456"
PS 197/John Russwurm,"-73.937309","40.813297",School Based Diagnostic and Treatment Center Extension Clinic,2230 Fifth Avenue,New York,New York,"10037"
Montefiore Medical Center - Montefiore Medical Group- East Tremont Avenue,"-73.820165","40.823535",Hospital Extension Clinic,3860 East Tremont Avenue,Bronx,New York,"10465"
Planned Parenthood Diane L. Max Queens Health Center,"-73.946145","40.746553",Diagnostic and Treatment Center Extension Clinic,21-41 45th Road,Long Island City,New York,"11101"
Pierre Toussaint Family Health Care Center,"-73.931625","40.668373",Hospital Extension Clinic,1110 Eastern Parkway,Brooklyn,New York,"11213"
Broadway Dialysis Center,"-73.885719","40.74432",Diagnostic and Treatment Center Extension Clinic,79-01 Broadway,Elmhurst,New York,"11373"
HSS Queens Outpatient Center,"-73.790661","40.725754",Hospital Extension Clinic,176-60 Union Turnpike,Fresh Meadows,New York,"11366"
NYU Langone Levit Medical Arts Pavilion,"-73.961128","40.610073",Hospital Extension Clinic,1220 Avenue P,Brooklyn,New York,"11229"
Morrisania-Mott Haven,"-73.903343","40.832485",Diagnostic and Treatment Center Extension Clinic,1309 Fulton Ave,Bronx,New York,"10456"
Fort Hamilton Clinic Treatment Program,"-74.026909","40.6208",Hospital Extension Clinic,8710 Fifth Avenue,Brooklyn,New York,"11209"
Intermediate School 45,"-73.887108","40.858738",School Based Hospital Extension Clinic,2502 Lorrilard Avenue,Bronx,New York,"10458"
Little Neck Dialysis,"-73.736413","40.770393",Diagnostic and Treatment Center Extension Clinic,252-17 Northern Boulevard,Little Neck,New York,"11362"
Myrtle Avenue Dialysis Center,"-73.979587","40.693331",Hospital Extension Clinic,218 Myrtle Avenue,Brooklyn,New York,"11201"
Weill Cornell Imaging at NYP-West Side,"-73.977875","40.786949",Diagnostic and Treatment Center Extension Clinic,2315 Broadway,New York,New York,"10024"
Rogosin Kidney Center - Auburndale,"-73.793915","40.760899",Diagnostic and Treatment Center Extension Clinic,39-20 Utopia Parkway,Queens,New York,"11318"
P.S. 091 The Albany Avenue School,"-73.940141","40.661837",School Based Hospital Extension Clinic,532 Albany Avenue,Brooklyn,New York,"11203"
"CHC Surgical Center, LLC","-73.984632","40.701969",Diagnostic and Treatment Center,79 Bridge Street,Brooklyn,New York,"11201"
P.S. 90,"-73.979668","40.578487",School Based Hospital Extension Clinic,2840 W. 12th Street,Brooklyn,New York,"11224"
Metro Community Health Center Brooklyn,"-73.93297","40.66324",Diagnostic and Treatment Center Extension Clinic,842 A Lefferts Avenue,Brooklyn,New York,"11203"
Melrose Dialysis,"-73.915253","40.815529",Diagnostic and Treatment Center Extension Clinic,459 East 149th Street,Bronx,New York,"10455"
Renaissance Health Care Network,"-73.953568","40.805305",Diagnostic and Treatment Center,264 West 118th Street,New York,New York,"10026"
Rockaway Dialysis,"-73.754135","40.600529",Diagnostic and Treatment Center,529 Beach 20th Street,Far Rockaway,New York,"11691"
Queensbridge Family Health Center,"-73.946342","40.756073",Hospital Extension Clinic,10-29 41st Avenue,Long Island City,New York,"11101"
MediDental Care,"-73.912079","40.77533",Diagnostic and Treatment Center,22-46 31st Street,Astoria,New York,"11105"
Max Meltzer Health & Service Center,"-73.987465","40.722939",Hospital Extension Clinic,94 East 1st Street,New York,New York,"10009"
Greenpoint Community Health Center,"-73.954325","40.729611",Diagnostic and Treatment Center Extension Clinic,875 Manhattan Avenue,Brooklyn,New York,"11222"
Queens Hospital Center,"-73.803581","40.71722",Hospital,82-68 164th Street,Jamaica,New York,"11432"
Queens Dialysis Center,"-73.782532","40.683594",Diagnostic and Treatment Center Extension Clinic,"118-01,05,07A Guy Brewer Boulevard",Jamaica,New York,"11434"
"Queens Boulevard ASC, LLC","-73.863846","40.730934",Diagnostic and Treatment Center,95-25 Queens Boulevard,Rego Park,New York,"11374"
Vincent P. Dole Clinic,"-73.996422","40.671593",Hospital Extension Clinic,25 12th Street,Brooklyn,New York,"11215"
Jamaica Hillside Dialysis,"-73.790796","40.711798",Diagnostic and Treatment Center Extension Clinic,171-19 Hillside Avenue,Jamaica,New York,"11432"
Mount Hope Family Practice,"-73.914368","40.849964",Diagnostic and Treatment Center Extension Clinic,130 West Tremont Avenue,Bronx,New York,"10453"
Castle Hill Family Practice,"-73.85247","40.834164",Hospital Extension Clinic,2175 Westchester Avenue,Bronx,New York,"10462"
"Parkmed NYC, LLC","-73.971612","40.750033",Diagnostic and Treatment Center,"800 Second Avenue, 6th Floor",New York,New York,"10017"
Henry J. Carter Specialty Hospital,"-73.940811","40.802979",Hospital,1752 Park Avenue,New York,New York,"10035"
CenterLight Healthcare D&TC - Allerton Avenue Site,"-73.868546","40.865353",Diagnostic and Treatment Center Extension Clinic,668 Allerton Avenue,Bronx,New York,"10467"
"Physicare Multi-Services, Ltd","-73.940674","40.617695",Diagnostic and Treatment Center,3508 Flatlands Avenue,Brooklyn,New York,"11234"
St Barnabas Ambulatory Care Center,"-73.89151","40.853554",Hospital Extension Clinic,4487 Third Avenue,Bronx,New York,"10457"
Bedford Park Dialysis Center,"-73.876549","40.871536",Diagnostic and Treatment Center Extension Clinic,3117 Webster Avenue,Bronx,New York,"10467"
Fifth Avenue Surgery Center,"-73.96918","40.752875",Diagnostic and Treatment Center Extension Clinic,305 East 47th Street,New York,New York,"10017"
Public Health Solutions Brownsville Center,"-73.908203","40.676464",Diagnostic and Treatment Center Extension Clinic,1873 Eastern Parkway,Brooklyn,New York,"11233"
PS 1,"-74.012375","40.649162",School Based Hospital Extension Clinic,309 47th Street,Brooklyn,New York,"11220"
Lenox Hill Hospital Extension Clinic at MEETH,"-73.963821","40.764416",Hospital Extension Clinic,210 East 64th Street,New York,New York,"10021"
Memorial Sloan Kettering 55th Street Imaging Center,"-73.965759","40.757862",Hospital Extension Clinic,301 East 55th Street,New York,New York,"10022"
Weill Cornell Imaging at NYP-55 St,"-73.962486","40.756355",Diagnostic and Treatment Center Extension Clinic,416 East 55th Street,New York,New York,"10021"
Maimonides Adult/Ped Dental Center,"-73.988632","40.638279",Hospital Extension Clinic,4303-4305 13th Avenue,Brooklyn,New York,"11219"
Plaza Del Castilo Health Center,"-73.889984","40.83395",Diagnostic and Treatment Center Extension Clinic,1515 Southern Blvd,Bronx,New York,"10460"
Brooklyn Plaza Medical Center,"-73.97654","40.687092",Diagnostic and Treatment Center,650 Fulton Street,Brooklyn,New York,"11217"
Laconia Dialysis,"-73.848602","40.875984",Diagnostic and Treatment Center Extension Clinic,3440 Boston Road,Bronx,New York,"10469"
Alcoholism Outpatient Clinic,"-73.923813","40.811272",Hospital Extension Clinic,349 East 140th Street,Bronx,New York,"10454"
Joseph P Addabbo Family Health Center,"-73.833336","40.678562",Diagnostic and Treatment Center Extension Clinic,105-34 Rockaway Blvd.,Ozone Park,New York,"11417"
BronxCare MBD Family Practice,"-73.885422","40.835808",Diagnostic and Treatment Center Extension Clinic,1690 Bryant Avenue,Bronx,New York,"10460"
Montefiore Dental Center@Bronx Muni Hosp,"-73.843781","40.857151",Hospital Extension Clinic,Pelham Parkway South & Eastchester Rd,Bronx,New York,"10461"
Genesis Renal Care,"-73.862633","40.708199",Diagnostic and Treatment Center,74-07 88th Street,Glendale,New York,"11385"
"Central Brooklyn Dialysis Center, LLC","-73.951286","40.672531",Diagnostic and Treatment Center,818 Sterling Place,Brooklyn,New York,"11216"
BOOM! Health,"-73.925629","40.815807",Diagnostic and Treatment Center Extension Clinic,226 East 144th Street,Bronx,New York,"10451"
Norman Thomas High School,"-73.981063","40.74648",School Based Diagnostic and Treatment Center Extension Clinic,111 East 33rd Street,New York,New York,"10016"
The Firehouse Health Clinic,"-73.798347","40.705261",Diagnostic and Treatment Center Extension Clinic,89-56 162nd Street,Jamaica,New York,"11432"
Sanford R Nalitt Inst for Cancer,"-74.086708","40.586643",Hospital Extension Clinic,256 Mason Avenue,Staten Island,New York,"10305"
Saint Joseph's Medical Center Queens OTP,"-73.786876","40.71162",Hospital Extension Clinic,175-20 Hillside Avenue,Jamaica,New York,"11432"
Medisys Family Care Center,"-73.770683","40.710941",Hospital Extension Clinic,188-03 Jamaica Avenue,Jamaica,New York,"11423"
Curtis High School,"-74.081207","40.644787",School Based Diagnostic and Treatment Center Extension Clinic,105 Hamilton Avenue,Staten Island,New York,"10301"
George Washington High School,"-73.926987","40.855942",School Based Hospital Extension Clinic,549 Audubon Avenue,New York,New York,"10034"
CenterLight Healthcare Diagnostic and Treatment Center,"-73.867592","40.861694",Diagnostic and Treatment Center,2401 White Plains Road,Bronx,New York,"10467"
Park Slope Family Health Center,"-73.99012","40.667587",Hospital Extension Clinic,220 13th Street,Brooklyn,New York,"11215"
Northwell Ambulatory Care Center- a Program of Long Island Jewish Medical Center,"-73.863846","40.730934",Hospital Extension Clinic,95-25 Queens Boulevard,Rego Park,New York,"11374"
The Marble Hill Family Practice Center,"-73.905716","40.877602",Hospital Extension Clinic,5525 Broadway,Bronx,New York,"10463"
Adapt Community Network,"-73.922295","40.807907",Diagnostic and Treatment Center Extension Clinic,408 East 137th Street,Bronx,New York,"10454"
Corona Health Center,"-73.872108","40.754082",Diagnostic and Treatment Center Extension Clinic,34-33 Junction Boulevard,Corona,New York,"11372"
MS 424,"-73.885796","40.815781",School Based Diagnostic and Treatment Center Extension Clinic,730 Bryant Avenue,Bronx,New York,"10474"
U.S. Renal Care Pelham Parkway Dialysis,"-73.846402","40.852742",Diagnostic and Treatment Center,1225A Morris Park Ave.,Bronx,New York,"10461"
Vanderbilt Avenue Health Center,"-74.076938","40.620261",Diagnostic and Treatment Center Extension Clinic,165 Vanderbilt Avenue,Staten Island,New York,"10304"
North Central Bronx Hospital,"-73.881538","40.880512",Hospital,3424 Kossuth Avenue & 210th Street,Bronx,New York,"10467"
NYU Langone Hospitals,"-73.974159","40.742874",Hospital,550 First Avenue,New York,New York,"10016"
NYU Langone Hassenfeld and Fink Children's Center,"-73.979897","40.744732",Hospital Extension Clinic,160 East 32nd Street,New York,New York,"10016"
Brookdale Family Care Center-Flatbush,"-73.957771","40.64373",Diagnostic and Treatment Center Extension Clinic,1095 Flatbush Avenue,Brooklyn,New York,"11226"
FMS-Queens Artifical Kidney Center,"-73.895958","40.751766",Diagnostic and Treatment Center Extension Clinic,34-35 70th Street,Jackson Heights,New York,"11372"
Joseph P. Addabbo Family Health Center,"-73.782394","40.683353",Diagnostic and Treatment Center Extension Clinic,118-11 Guy Brewer Boulevard,Jamaica,New York,"11434"
Mt Sinai Adolescent Health Center,"-73.947136","40.782509",Hospital Extension Clinic,320 East 94th St,New York,New York,"10128"
Walton High Campus,"-73.897911","40.870598",School Based Hospital Extension Clinic,2780 Reservoir Avenue,Bronx,New York,"10468"
PS 811 M,"-73.976669","40.739609",School Based Hospital Extension Clinic,461 1st Avenue,New York,New York,"10010"
All County LLC,"-73.807381","40.738861",Diagnostic and Treatment Center,161-05 Horace Harding Expressway,Flushing,New York,"11365"
NYU Langone Occupational and Industrial Orthopaedic Center (OIOC),"-74.004402","40.72916",Hospital Extension Clinic,63 Downing St,New York,New York,"10014"
Memorial Sloan Kettering Counseling Center,"-73.970268","40.759251",Hospital Extension Clinic,641 Lexington Avenue,New York,New York,"10022"
Elmhurst Hospital Center,"-73.885719","40.74432",Hospital,79-01 Broadway,Elmhurst,New York,"11373"
Reality House Clinic,"-73.931877","40.772705",Diagnostic and Treatment Center Extension Clinic,8-13 Astoria Boulevard,Astoria,New York,"11102"
Joseph P Addabbo-Family Health Center,"-73.790459","40.593563",Diagnostic and Treatment Center,6200 Beach Channel Drive,Arverne,New York,"11692"
Boston Post Road Dialysis Center,"-73.831571","40.884458",Diagnostic and Treatment Center Extension Clinic,4000-4026 Boston Road,Bronx,New York,"10475"
BronxCare Hospital Center,"-73.903656","40.831772",Hospital,1276 Fulton Avenue,Bronx,New York,"10456"
Brooklyn Surgery Center,"-73.978615","40.616638",Diagnostic and Treatment Center,6010 Bay Parkway,Brooklyn,New York,"11204"
Planned Parenthood Joan Malin Brooklyn Health Center,"-73.990997","40.692669",Diagnostic and Treatment Center Extension Clinic,44 Court Street,Brooklyn,New York,"11201"
John F. Kennedy Education Campus,"-73.912514","40.876953",School Based Hospital Extension Clinic,99 Terrace View Avenue,Bronx,New York,"10463"
PS 192/PS 325,"-73.951935","40.821228",School Based Diagnostic and Treatment Center Extension Clinic,500 West 138th Street,New York,New York,"10031"
Cadman Family Health Center,"-73.991256","40.695219",Diagnostic and Treatment Center Extension Clinic,300 Cadman Plaza West,Brooklyn,New York,"11201"
East Side Endoscopy and Pain Management Center,"-73.981209","40.737343",Diagnostic and Treatment Center,380 Second Avenue,New York,New York,"10010"
Jackson Avenue Family Residence,"-73.913879","40.805367",Diagnostic and Treatment Center Extension Clinic,691 East 138th Street,Bronx,New York,"10454"
Josie Robertson Surgery Center,"-73.958713","40.760189",Hospital Extension Clinic,1133 York Avenue,New York,New York,"10065"
Calvary Hospital Inc,"-73.844658","40.847294",Hospital,1740-70 Eastchester Road,Bronx,New York,"10461"
Starling Diagnostic & Imaging Center,"-73.860014","40.836864",Diagnostic and Treatment Center,1480 East Avenue,Bronx,New York,"10462"
Foot Clinics of NY,"-73.940964","40.805058",Diagnostic and Treatment Center,53 East 124 Street,New York,New York,"10035"
Samaritan Health Village 53rd St,"-73.968307","40.757301",Diagnostic and Treatment Center Extension Clinic,225 East 53rd Street,New York,New York,"10022"
PS 040 George W Carver,"-73.92196","40.68014",School Based Hospital Extension Clinic,265 Ralph Avenue,Brooklyn,New York,"11233"
LIJMC-Satellite Dialysis Facility,"-73.742638","40.730801",Hospital Extension Clinic,220-22 Hillside Ave,Queens Village,New York,"11427"
Far Rockaway Treatment Center,"-73.751953","40.605255",Hospital Extension Clinic,1600 Central Avenue,Far Rockaway,New York,"11691"
Mobile Van Dental Clinic,"-73.981972","40.639771",School Based Diagnostic and Treatment Center Extension Clinic,1450 37th Street,Brooklyn,New York,"11218"
BIMC Geriatrics Senior Health Center,"-73.998009","40.746037",Hospital Extension Clinic,275 Eighth Avenue,New York,New York,"10011"
Brooklyn Center for Renal Dialysis,"-73.926499","40.673482",Diagnostic and Treatment Center Extension Clinic,170 Buffalo Avenue,Brooklyn,New York,"10470"
Carol Molinaro DCI Dialysis Center,"-74.109016","40.634666",Diagnostic and Treatment Center Extension Clinic,800 Castleton Avenue,Staten Island,New York,"10310"
ODA Primary Health Care Network,"-73.955376","40.69698",Diagnostic and Treatment Center Extension Clinic,517 Park Avenue,Brooklyn,New York,"11205"
New York University Dental Center,"-73.978661","40.737877",Diagnostic and Treatment Center,345 East 24th Street,New York,New York,"10010"
"NY-Presbyterian Brooklyn Methodist Hospital, Rehab Center and Women & Children's Clinics","-73.981712","40.668816",Hospital Extension Clinic,"263 7th Avenue, 2nd & 3rd Floors",Brooklyn,New York,"11215"
START Treatment & Recovery Centers,"-73.938187","40.800331",Diagnostic and Treatment Center Extension Clinic,2195 Third Avenue,New York,New York,"10035"
"Comprehensive Health Care & Rehabilitation Services, LLC","-73.925308","40.70039",Diagnostic and Treatment Center,148 Wilson Avenue,Brooklyn,New York,"11237"
FMS-Nephro-Care,"-73.945732","40.678101",Diagnostic and Treatment Center Extension Clinic,1402 Atlantic Avenue,Brooklyn,New York,"11236"
Far Rockaway HS Clinic,"-73.762741","40.601585",School Based Hospital Extension Clinic,821 Bay 25th Street,Far Rockaway,New York,"11691"
"Healthcare Choices NY, Inc.","-73.949745","40.740353",Diagnostic and Treatment Center Extension Clinic,21-10 Borden Avenue,Long Island City,New York,"11101"
PS 194/Countee Cullen,"-73.941078","40.821541",School Based Diagnostic and Treatment Center Extension Clinic,244 West 144th Street,New York,New York,"10030"
Maimonides Rehabilitation Services,"-74.010689","40.631588",Hospital Extension Clinic,883 65th Street,Brooklyn,New York,"11219"
AIDS Healthcare Foundation,"-73.922155","40.819989",Diagnostic and Treatment Center,655 Morris Avenue,Bronx,New York,"10451"
Mid-Bronx Endoscopy Center,"-73.909496","40.854075",Diagnostic and Treatment Center,51 West Burnside Avenue,Bronx,New York,"10453"
Betances Health Center,"-73.983505","40.713905",Diagnostic and Treatment Center,280 Henry Street,New York,New York,"10002"
Rogosin Institute Brooklyn Home Dialysis,"-73.999349","40.674785",Diagnostic and Treatment Center Extension Clinic,527 Court Street,Brooklyn,New York,"11231"
Mount Sinai Comprehensive Health Program - Downtown,"-73.994385","40.745678",Hospital Extension Clinic,275 7th Avenue,New York,New York,10001-6708
Albert Tuitt Educational Academy,"-73.852516","40.887821",School Based Diagnostic and Treatment Center Extension Clinic,921 East 228th Street,Bronx,New York,"10466"
"Rose F. Kennedy Center, Children's Evaluation and Rehabilitation Center at Montefiore","-73.847719","40.851233",Hospital Extension Clinic,1225 Morris Park Ave,Bronx,New York,"10461"
Lexington Hearing & Speech Center Inc,"-73.893456","40.762276",Diagnostic and Treatment Center,74-20 25th Avenue,Jackson Heights,New York,"11370"
Premier Healthcare Remsen Street,"-73.991539","40.693329",Diagnostic and Treatment Center Extension Clinic,175 Remsen Street,Brooklyn,New York,"11201"
Staten Island University Hosp-North,"-74.086998","40.584141",Hospital,475 Seaview Avenue,Staten Island,New York,"10305"
Manhattan Surgery Center,"-73.994598","40.769203",Diagnostic and Treatment Center,619 West 54th Street,New York,New York,"10019"
Medalliance Medical Health Services,"-73.884094","40.858307",Diagnostic and Treatment Center,625 East Fordham Road,Bronx,New York,"10458"
"ODA Primary Health Care Network, Inc","-73.958878","40.699837",Diagnostic and Treatment Center,14-16 Heyward Street,Brooklyn,New York,"11211"
New York-Presbyterian David H. Koch Center,"-73.955346","40.764794",Hospital,1283 York Avenue,New York,New York,"10065"
Long Island Jewish Medical Center Primary Care Extension Clinic,"-73.714841","40.745637",Hospital Extension Clinic,256-11 Union Turnpike,Glen Oaks,New York,"11004"
Park Ridge Family Health Center,"-74.020172","40.638981",Hospital Extension Clinic,6317 4th Avenue,Brooklyn,New York,"11220"
Montefiore Med Center - Jack D Weiler Hosp of A Einstein College Div,"-73.845055","40.849575",Hospital,1825 Eastchester Road,Bronx,New York,"10461"
The Children's Aid Society,"-73.947128","40.802593",Diagnostic and Treatment Center Extension Clinic,14-32 West 118th Street,New York,New York,"10026"
START Treatment & Recovery Centers,"-73.935173","40.697041",Diagnostic and Treatment Center Extension Clinic,1155 Myrtle Avenue,Brooklyn,New York,"11206"
Pelham Physical Medicine Inc,"-73.85553","40.855915",Diagnostic and Treatment Center,2118 Williamsbridge Road,Bronx,New York,"10461"
Center for Comprehensive Health Practice Inc,"-73.945763","40.785938",Diagnostic and Treatment Center,1900 Second Avenue,New York,New York,"10029"
Wyckoff Heights Medical Center Extension Clinic,"-73.919441","40.703995",Hospital Extension Clinic,1610 DeKalb Avenue,Brooklyn,New York,"11237"
Housing Works Services II,"-73.986526","40.692528",Diagnostic and Treatment Center Extension Clinic,"57 Willoughby Street, Lower Level",Brooklyn,New York,"11201"
Pediatric Dentistry Ext Clinic,"-73.94223","40.842072",Diagnostic and Treatment Center Extension Clinic,722 West 168th Street,New York,New York,"10032"
Boricua Community Health Center,"-73.909461","40.823338",Diagnostic and Treatment Center Extension Clinic,3209 Third Avenue,Bronx,New York,"10451"
St Barnabas Hospital-Hemodialysis,"-73.892677","40.85231",Hospital Extension Clinic,4441-4451 3rd Avenue,Bronx,New York,"10457"
Psych/Alcoholism Treatment Pgm,"-74.085442","40.583042",Hospital Extension Clinic,450 Seaview Avenue,Staten Island,New York,"10305"
Upper West Side Endoscopy,"-73.98238","40.77992",Diagnostic and Treatment Center,230 West 74th Street,New York,New York,"10023"
Avantus Upper East Side Dialysis Center,"-73.962227","40.762226",Diagnostic and Treatment Center Extension Clinic,315 East 62nd Street,New York,New York,"10128"
North Canarsie Dialysis,"-73.909099","40.665719",Diagnostic and Treatment Center Extension Clinic,276 Blake Avenue,Brooklyn,New York,"11212"
New Vanderbilt Dialysis (DCI),"-74.076439","40.621323",Diagnostic and Treatment Center Extension Clinic,135 Vanderbilt Avenue,Staten Island,New York,"10304"
"Perry Avenue Family Medical Center, Inc.","-73.879303","40.872791",Diagnostic and Treatment Center,3071 Perry Avenue,Bronx,New York,"10467"
Bella Vista Health Center,"-73.889374","40.81921",Diagnostic and Treatment Center Extension Clinic,890 Hunts Point Ave,Bronx,New York,"10474"
"All City Family Healthcare Center, Inc.","-73.940964","40.595226",Diagnostic and Treatment Center,3632 Nostrand Avenue,Brooklyn,New York,"11229"
PS 136 Charles O. Dewey/Sunset Park Prep MS 821,"-74.006959","40.652085",School Based Hospital Extension Clinic,4004 4th Avenue,Brooklyn,New York,"11232"
UCHC Mobile Dental Unit,"-73.89594","40.86074",Diagnostic and Treatment Center Extension Clinic,260 East 188th Street,Bronx,New York,"10458"
Callen-Lorde Community Health Center Mobile Unit ll,"-74.003123","40.74304",Mobile Diagnostic and Treatment Center Extension Clinic,356 West 18th Street,New York,New York,"10011"
Center for Community Health,"-73.978535","40.668218",Hospital Extension Clinic,515 6th Street,Brooklyn,New York,"11215"
Allhealth D&TC-Mobile Van,"-73.966454","40.630699",Diagnostic and Treatment Center Extension Clinic,1100 Coney Island,Brooklyn,New York,"11230"
Queens-Long Island Renal Institute,"-73.706223","40.753952",Diagnostic and Treatment Center,271-11 76th Avenue,New Hyde Park,New York,"11040"
Riverside Health Center,"-73.967621","40.796234",Diagnostic and Treatment Center Extension Clinic,160 West 100th Street,New York,New York,"10025"
Evander Childs Campus,"-73.862068","40.875938",School Based Hospital Extension Clinic,800 East Gun Hill Road,Bronx,New York,"10467"
Health Care for the Homeless Center,"-73.943913","40.813964",Diagnostic and Treatment Center Extension Clinic,169 West 133rd Street,New York,New York,"10030"
Samaritan Health Service University,"-73.926102","40.842339",Diagnostic and Treatment Center Extension Clinic,1381 University Ave,Bronx,New York,"10452"
LIJMC-Satellite Dialysis Facility,"-73.742638","40.730801",Hospital Extension Clinic,220-22 Hillside Ave,Queens Village,New York,"11427"
P.S. 5,"-73.922869","40.858968",School Based Diagnostic and Treatment Center Extension Clinic,3703 10th Ave at Dyckman Street,New York,New York,"10034"
Williamsbridge Family Practice Center,"-73.857381","40.869689",Hospital Extension Clinic,3011 Boston Road,Bronx,New York,"10469"
P.S. 124,"-73.995476","40.714252",School Based Hospital Extension Clinic,40 Division Street,New York,New York,"10002"
Northwell Ambulatory Care Center- a Program of Long Island Jewish Medical Center,"-73.863846","40.730934",Hospital Extension Clinic,95-25 Queens Boulevard,Rego Park,New York,"11374"
Charles B Wang Comm Health Care Center,"-74.001251","40.718872",Diagnostic and Treatment Center Extension Clinic,268 Canal St,New York,New York,"10013"
Theodore Roosevelt High School,"-73.88813","40.859848",School Based Hospital Extension Clinic,500 East Fordham Road,Bronx,New York,"10458"
Bailey House Inc Park Avenue Health Center,"-73.94034","40.80285",Diagnostic and Treatment Center Extension Clinic,1751 Park Avenue,New York,New York,"10035"
NYU Langone Rivergate Transplant Clinic,"-73.973213","40.743725",Hospital Extension Clinic,401 East 34th Street,New York,New York,"10016"
14 Penn Dental Center,"-73.991699","40.751511",Diagnostic and Treatment Center Extension Clinic,"225 West 34th Street, Suite 400",New York,New York,"10122"
Reg Imaging and Therapeutic Rad Services,"-74.10675","40.63546",Hospital Extension Clinic,360 Bard Avenue,Staten Island,New York,"10310"
Jamaica Health Center,"-73.800705","40.704361",Diagnostic and Treatment Center Extension Clinic,90-37 Parsons Blvd,Jamaica,New York,"11432"
Lenox Hill Hospital,"-73.960632","40.773907",Hospital,100 East 77th Street,New York,New York,"10021"
Thomas Jefferson High School,"-73.894821","40.667526",School Based Diagnostic and Treatment Center Extension Clinic,400 Pennsylvania Avenue,Brooklyn,New York,"11207"
Mount Sinai Hospital,"-73.953766","40.790482",Hospital,One Gustave L Levy Place,New York,New York,"10029"
Bella Vista Community Health Center,"-73.889282","40.819061",Diagnostic and Treatment Center Extension Clinic,882-886 Hunts Point Avenue,Bronx,New York,"10459"
Morris Heights Health Center Mobile Van,"-73.903733","40.856334",Mobile Diagnostic and Treatment Center Extension Clinic,2186 Walton Avenue,Bronx,New York,"10453"
Lower Manhattan Health District,"-73.999138","40.749596",Diagnostic and Treatment Center Extension Clinic,303 9th Avenue,New York,New York,"10001"
Triborough Ambulatory Surgery Center,"-73.893525","40.850361",Diagnostic and Treatment Center,550 East 180th Street,Bronx,New York,"10457"
"NYP/Queens Developmental Disability, Neuro Science Center and Pediatric Asthma Center","-73.796384","40.739842",Hospital Extension Clinic,"59-16 174th Street, Lower Level",Flushing,New York,"11365"
Urban Strategies/Brookdale Family Care Center,"-73.908203","40.676464",Diagnostic and Treatment Center,1873 Eastern Parkway,Brooklyn,New York,"11233"
Island Rehabilitative Services,"-74.087183","40.583725",Diagnostic and Treatment Center,470 Seaview Avenue,Staten Island,New York,"10305"
I S 166,"-73.885765","40.660538",School Based Diagnostic and Treatment Center Extension Clinic,800 Van Siclen Avenue,Brooklyn,New York,"11207"
Union Community Health Center Comprehensive Family Dentistry,"-73.891558","40.851963",Diagnostic and Treatment Center Extension Clinic,2101 Quarry Road,Bronx,New York,"10457"
Williamsburg Community Health Center,"-73.944328","40.712093",Diagnostic and Treatment Center Extension Clinic,279 Graham Avenue,Brooklyn,New York,"11206"
Maimonides Medical Center,"-73.99839","40.639423",Hospital,4802 Tenth Avenue,Brooklyn,New York,"11219"
Narco Freedom Inc,"-73.919029","40.814503",Diagnostic and Treatment Center,479 Willis Avenue,Bronx,New York,"10455"
The Children's Aid Society,"-73.889938","40.834072",Diagnostic and Treatment Center,910 East 172nd Street,Bronx,New York,"10460"
CS 30&31/R Hernandez & L Hughes,"-73.935555","40.806042",School Based Diagnostic and Treatment Center Extension Clinic,144 E 128th Street,New York,New York,"10035"
Greenwich House Counseling Center,"-73.991859","40.745731",Diagnostic and Treatment Center Extension Clinic,122 West 27th Street,New York,New York,"10001"
Palm Gardens Dialysis Center LLC,"-73.972849","40.641071",Diagnostic and Treatment Center,615 Avenue C,Brooklyn,New York,"11218"
NYU Langone Brooklyn Ambulatory Surgery and Endoscopy Center,"-73.959465","40.609608",Hospital Extension Clinic,1630 East 14th Street,Brooklyn,New York,"11229"
Fordham-Tremont Comm Mental Health Center,"-73.893288","40.845509",Hospital Extension Clinic,1910 Arthur Avenue,Bronx,New York,"10458"
Benjamin Banneker Academy,"-73.969177","40.695328",School Based Diagnostic and Treatment Center Extension Clinic,77 Clinton Avenue,Brooklyn,New York,"11205"
Philip Randolph Campus HS,"-73.950867","40.818394",School Based Hospital Extension Clinic,135th St at Convent Ave,New York,New York,"10031"
NYU Langone Levit Medical Arts Pavilion,"-73.960342","40.610157",Hospital Extension Clinic,1300 Avenue P,Brooklyn,New York,"11229"
NYU Langone Harkness Center for Dance Injuries,"-73.975945","40.744606",Hospital Extension Clinic,614 Second Avenue,New York,New York,"10016"
APICHA Community Health Center,"-74.002434","40.718651",Diagnostic and Treatment Center,400 Broadway - 4th Floor,New York,New York,"10013"
Ryan Mobile Medical Van,"-73.88446","40.829708",Mobile Diagnostic and Treatment Center Extension Clinic,1480 Sheridan Expressway,Bronx,New York,"10459"
Quality First Medical Center,"-73.979043","40.616574",Diagnostic and Treatment Center Extension Clinic,6010 Bay Parkway,Brooklyn,New York,"11204"
Downtown Brooklyn Dialysis,"-74.001426","40.675124",Diagnostic and Treatment Center Extension Clinic,133 Mill Street,Brooklyn,New York,"11231"
PS 112,"-73.930206","40.796406",School Based Diagnostic and Treatment Center Extension Clinic,535 East 119th Street,New York,New York,"10035"
Beth Israel Med Center Cooper Square,"-73.985603","40.723099",Hospital Extension Clinic,26 Avenue A,New York,New York,"10003"
Gramercy Park DDC - Bennett Avenue,"-73.936848","40.850783",Diagnostic and Treatment Center Extension Clinic,2 Bennett Avenue,New York,New York,"10033"
Community Healthcare Network,"-73.895172","40.823055",Diagnostic and Treatment Center,975 Westchester Ave,Bronx,New York,"10459"
Urban Health Plan,"-73.856705","40.817799",Diagnostic and Treatment Center Extension Clinic,1930 Randall Avenue,Bronx,New York,"10473"
Sillerman Center for Rehabilitation,"-73.97403","40.759846",Hospital Extension Clinic,515 Madison Avenue,New York,New York,"10022"
P.S. 179,"-73.919868","40.809471",School Based Hospital Extension Clinic,468 East 140th Street,Bronx,New York,"10454"
Damian Family Care Center,"-73.815186","40.702442",Diagnostic and Treatment Center,137-50 Jamaica Avenue,Jamaica,New York,"11435"
August Martin High School,"-73.782733","40.674071",School Based Hospital Extension Clinic,156-10 Baisley Blvd.,Jamaica,New York,"11434"
Bronx River Dialysis,"-73.857681","40.844166",Diagnostic and Treatment Center Extension Clinic,1616 Bronxdale Avenue,Bronx,New York,"10462"
James M. Kieran Campus,"-73.873767","40.825007",School Based Diagnostic and Treatment Center Extension Clinic,"1025 Morrison Avenue, Room 142",Bronx,New York,"10472"
South Shore Educational Complex,"-73.917858","40.632708",School Based Hospital Extension Clinic,6565 Flatlands Ave,Brooklyn,New York,"11236"
Rogosin Institute - Nephrology Foundation of Brooklyn East,"-73.875386","40.664629",Diagnostic and Treatment Center Extension Clinic,2372 Linden Boulevard,Brooklyn,New York,"11208"
"Gastroenterology Care, Inc","-73.993904","40.60194",Diagnostic and Treatment Center,8622 Bay Parkway,Brooklyn,New York,"11214"
"William F. Ryan Community Health Center, Inc.","-73.939123","40.819716",Diagnostic and Treatment Center Extension Clinic,138 West 143rd Street,New York,New York,"10030"
NYU Langone Inflammatory Bowel Disease Center,"-73.97567","40.744038",Hospital Extension Clinic,305 East 33rd Street,New York,New York,"10016"
Metro Community Health Centers Downtown Brooklyn,"-73.986752","40.690182",Diagnostic and Treatment Center Extension Clinic,177 Livingston Street-Lower Lev,Brooklyn,New York,"11201"
NYU Mobile Dental Van,"-73.978661","40.737877",Diagnostic and Treatment Center Extension Clinic,345 East 24th Street,New York,New York,"10010"
PS 55 & Mott Hall III,"-73.904633","40.836246",School Based Hospital Extension Clinic,450 St Paul's Place,Bronx,New York,"10456"
Long Island City Dialysis,"-73.934355","40.751163",Diagnostic and Treatment Center Extension Clinic,30-46 Northern Boulevard,Long Island City,New York,"11101"
Intermediate School 52 Inwood,"-73.924896","40.866032",School Based Hospital Extension Clinic,650 Academy Street,New York,New York,"10034"
NYP/Queens Primary Care Center,"-73.791946","40.739769",Hospital Extension Clinic,182-19 Horace Harding Expressway,Fresh Meadows,New York,"11365"
2021 Grand Concourse,"-73.904449","40.851776",Diagnostic and Treatment Center Extension Clinic,2021 Grand Conourse,Bronx,New York,"10453"
X 147,"-73.904289","40.840446",School Based Hospital Extension Clinic,1600 Webster Avenue,Bronx,New York,"10457"
Fresenius Kidney Care - Kings County South,"-73.96977","40.60195",Diagnostic and Treatment Center Extension Clinic,420 Avenue P,Brooklyn,New York,"11223"
Dr. Jacqueline Peek-Davis School/Ronald Edmonds Learning Center II,"-73.919757","40.672854",School Based Hospital Extension Clinic,430 Howard Avenue,Brooklyn,New York,"11233"
NY-Presbyterian Brooklyn Methodist Hospital Infusion Services,"-73.986334","40.672667",Hospital Extension Clinic,343 4th Ave,Brooklyn,New York,"11215"
Metro Community Health Center Queens,"-73.906448","40.735371",Diagnostic and Treatment Center Extension Clinic,51-40 59th Street,Woodside,New York,"11377"
Sheepshead Bay Renal Care Center,"-73.956436","40.581875",Diagnostic and Treatment Center Extension Clinic,26 Brighton 11th Street,Brooklyn,New York,"11235"
Health Center at Tremont,"-73.894638","40.843814",Diagnostic and Treatment Center Extension Clinic,1826 Arthur Avenue,Bronx,New York,"10457"
IDCC Health Services,"-73.982124","40.577976",Diagnostic and Treatment Center Extension Clinic,2846 Stillwell Avenue,Brooklyn,New York,"11224"
Housing Works East 9th Street ADHCP,"-73.976128","40.724564",Diagnostic and Treatment Center Extension Clinic,743-749 East Ninth Street,New York,New York,"10009"
MS 363,"-73.900208","40.859722",School Based Diagnostic and Treatment Center Extension Clinic,120 E 184th St,Bronx,New York,"10453"
Fresnius Kidney Care - Degraw Street,"-73.983553","40.679291",Diagnostic and Treatment Center Extension Clinic,595 Degraw Street,Brooklyn,New York,"11217"
Lower Manhattan Dialysis Center Inc,"-73.974632","40.74432",Diagnostic and Treatment Center,323 East 34th Street,New York,New York,"10016"
Project Renewal Health Ft. Washington,"-73.941462","40.841926",Diagnostic and Treatment Center Extension Clinic,651 W. 168th Street,New York,New York,"10032"
Harlem Clinics #1 #3 #6 #7,"-73.938629","40.804955",Hospital Extension Clinic,103 East 125th Street,New York,New York,"10035"
Upper East Side Dialysis Center,"-73.95359","40.778599",Diagnostic and Treatment Center,210 East 86th Street,New York,New York,"10028"
Long Island Jewish Forest Hills,"-73.851036","40.728745",Hospital,102-01 66th Road,Forest Hills,New York,"11375"
MS145,"-73.915581","40.82591",School Based Hospital Extension Clinic,1000 Teller Avenue,Bronx,New York,"10456"
St. John's Episcopal Hospital Ambulatory Care Center,"-73.754379","40.599712",Hospital Extension Clinic,495 Beach 20th Street,Far Rockaway,New York,"11691"
Liberty Endoscopy Center,"-74.005803","40.709972",Diagnostic and Treatment Center,156 William Street,New York,New York,"10038"
John Adams High School,"-73.83697","40.678603",School Based Hospital Extension Clinic,101-01 Rockaway Blvd,Jamaica,New York,"11417"
The High School of Fashion Industries,"-73.996231","40.745266",School Based Diagnostic and Treatment Center Extension Clinic,225 W 24th Street,New York,New York,"10011"
Lafayette Houses Child Health Clinic,"-73.959892","40.690327",Diagnostic and Treatment Center Extension Clinic,434 Dekalb Avenue,Brooklyn,New York,"11205"
Continuing Treatment Program II,"-73.910518","40.830783",Hospital Extension Clinic,1170 Webster Avenue at 167th Street,Bronx,New York,"10456"
121st Street Family Health Center,"-73.936897","40.800873",Diagnostic and Treatment Center Extension Clinic,219 East 121 Street,New York,New York,"10035"
NYU College of Dentistry - Brooklyn,"-73.983278","40.690733",Diagnostic and Treatment Center Extension Clinic,445 Albee Square West,Brooklyn,New York,"11201"
The New York Proton Center,"-73.934216","40.804313",Diagnostic and Treatment Center,225 East 126th Street,New York,New York,"10035"
Bay Ridge Surgi-Center,"-74.025721","40.630716",Diagnostic and Treatment Center,370 Bay Ridge Parkway,Brooklyn,New York,"11209"
Women's Health & Birthing Pavilion,"-73.910202","40.854454",Diagnostic and Treatment Center Extension Clinic,70 West Burnside Ave,Bronx,New York,"10453"
CASES Family Health Center,"-73.948707","40.808733",Diagnostic and Treatment Center Extension Clinic,2090 Adam Clayton Powell Jr. Boulevard,New York,New York,"10027"
Asian Health Center of Flushing,"-73.82991","40.761761",Diagnostic and Treatment Center Extension Clinic,136-26 37th Avenue 2nd Fl,Flushing,New York,"11354"
NYU Langone Transplant Clinic (Rivergate Extension),"-73.974831","40.744404",Hospital Extension Clinic,"317 East 34th Street, 8th Floor",New York,New York,"10016"
PS 142 - Stranahan,"-74.001602","40.679703",School Based Hospital Extension Clinic,610 Henry Street,Brooklyn,New York,"11231"
Yeled V'Yalda Childhood Center,"-73.980263","40.63599",School Based Diagnostic and Treatment Center Extension Clinic,4001 16th Avenue,Brooklyn,New York,"11218"
Williamsburg Family Health Center,"-73.964531","40.707573",Hospital Extension Clinic,99 Division Avenue,Brooklyn,New York,"11211"
Ralph Avenue Health Center,"-73.922517","40.668624",Diagnostic and Treatment Center Extension Clinic,599 Ralph Avenue,Brooklyn,New York,"11233"
"New York Renal Associates, Inc","-73.908607","40.830688",Diagnostic and Treatment Center,3468 Park Avenue,Bronx,New York,"10468"
Mount Sinai Beth Israel,"-73.981598","40.732666",Hospital,First Ave at 16th Street,New York,New York,"10003"
MMG - Via Verde,"-73.912247","40.819489",Hospital Extension Clinic,730 Brook Avenue,Bronx,New York,"10455"
Hearst Childrens Center,"-73.973465","40.630653",Diagnostic and Treatment Center Extension Clinic,160 Lawrence Avenue,Brooklyn,New York,"11230"
Medisys Family Care Center,"-73.804779","40.70182",Hospital Extension Clinic,149-18 Jamaica Avenue,Queens,New York,"11435"
Crown Heights Child & Adolescent Health Clinic,"-73.935194","40.673428",Diagnostic and Treatment Center Extension Clinic,1218 Prospect Place,Brooklyn,New York,"11213"
NYU Langone Perlmutter Cancer Center - Sunset Park,"-74.021607","40.644977",Hospital Extension Clinic,5718 2nd Avenue,Brooklyn,New York,"11220"
CenterLight Healthcare Diagnostic and Treatment Center,"-73.940445","40.710926",Diagnostic and Treatment Center Extension Clinic,122-140 Bushwick Avenue,Brooklyn,New York,"11206"
PS 57,"-73.941299","40.79755",School Based Diagnostic and Treatment Center Extension Clinic,176 East 115th Street,New York,New York,"10029"
Far Rockaway Treatment Center,"-73.751953","40.605255",Hospital Extension Clinic,1600 Central Avenue,Far Rockaway,New York,"11691"
Chelsea Center for Special Studies,"-73.991699","40.7425",Hospital Extension Clinic,53 West 23rd Street,New York,New York,"10011"
Avicenna ASC,"-73.884028","40.858544",Diagnostic and Treatment Center,2522 Hughes Avenue,Bronx,New York,"10458"
Child Protection Center,"-73.881218","40.878609",Hospital Extension Clinic,3314 Steuben Avenue,Bronx,New York,"10467"
CUHC Mobile Unit,"-73.940964","40.84153",School Based Diagnostic and Treatment Center Extension Clinic,630 West 168th Street,New York,New York,"10032"
East NY Diagnostic & Treatment Center,"-73.895218","40.671932",Diagnostic and Treatment Center,2094 Pitkin Avenue,Brooklyn,New York,"11207"
Health Opportunities High School,"-73.930443","40.815704",School Based Diagnostic and Treatment Center Extension Clinic,350 Gerard Avenue,Bronx,New York,"10453"
Staten Island University Hospital Prince's Bay,"-74.196808","40.516773",Hospital,375 Seguine Avenue,Staten Island,New York,"10309"
CitiMed Surgery Center,"-73.794904","40.704971",Diagnostic and Treatment Center,92-12 165th Street,Jamaica,New York,"11433"
Odyssey House Mabon Clinic,"-73.939314","40.786468",Diagnostic and Treatment Center Extension Clinic,Mabon Bldg #13,Wards Island,New York,"10035"
Intermediate School 218,"-73.930656","40.860695",School Based Diagnostic and Treatment Center Extension Clinic,4600 Broadway,New York,New York,"10040"
Community Healthcare Network,"-73.799408","40.705341",Diagnostic and Treatment Center Extension Clinic,90-04 161 Street,Jamaica,New York,"11432"
"Novo Dialysis Flatlands, LLC","-73.94734","40.62844",Diagnostic and Treatment Center,2306 Nostrand Avenue,Brooklyn,New York,"11210"
P S 8,"-73.936974","40.839252",School Based Diagnostic and Treatment Center Extension Clinic,465 W 167th Street,New York,New York,"10032"
Canarsie Multi Service Center,"-73.898193","40.65073",Hospital Extension Clinic,567 East 105th St,Brooklyn,New York,"11218"
LaProvidencia Family Health Center,"-73.926102","40.697224",Hospital Extension Clinic,1280 DeKalb Avenue,Brooklyn,New York,"11221"
CenterLight Healthcare,"-73.921112","40.662094",Diagnostic and Treatment Center Extension Clinic,205 Rockaway Parkway,Brooklyn,New York,"11212"
NY-Presbyterian Brooklyn Methodist Hospital Cardio-Vascular Services,"-74.026825","40.620693",Hospital Extension Clinic,8721 5th Avenue,Brooklyn,New York,"11209"
Highbride Dialysis,"-73.931777","40.84704",Diagnostic and Treatment Center Extension Clinic,2406 Amsterdam Avenue,New York,New York,"10031"
Montefiore Einstein Center for Heart and Vascular Care at 1628 Eastchester Road,"-73.845207","40.845135",Hospital Extension Clinic,1628 Eastchester Road,Bronx,New York,"10461"
Apex Eye Surgery Center,"-73.837486","40.686443",Diagnostic and Treatment Center,105-12 101st Avenue,Ozone Park,New York,"11416"
Medcare,"-73.817467","40.585808",Diagnostic and Treatment Center Extension Clinic,217 Beach 95th St,Rockaway Beach,New York,"11693"
New York Center For Ambulatory Surgery,"-73.961857","40.763334",Diagnostic and Treatment Center,1210 Second Avenue,New York,New York,"10065"
Richmond Pain Management ASC,"-74.085808","40.5952",Diagnostic and Treatment Center,1360 Hylan Boulevard,Staten Island,New York,"10305"
Nelson Avenue Family Residence,"-73.918961","40.846775",Diagnostic and Treatment Center Extension Clinic,1625-11 Nelson Avenue,Bronx,New York,"10453"
Queens Village Dialysis Center,"-73.731949","40.712254",Diagnostic and Treatment Center Extension Clinic,222-02 Hempstead Avenue,Queens Village,New York,"11429"
Beacon Christian Community Health Center - Annex Site,"-74.157064","40.626499",Diagnostic and Treatment Center Extension Clinic,2031 Forest Avenue,Staten Island,New York,"10303"
Betances Health Center,"-73.919851","40.688325",Diagnostic and Treatment Center Extension Clinic,1427 Broadway,Brooklyn,New York,"11221"
P S 28 Mt Hope Elementary School,"-73.903557","40.848133",School Based Hospital Extension Clinic,1861 Anthony Avenue,Bronx,New York,"10457"
Maimonides Cardiology Outpatient Center,"-74.001915","40.640873",Hospital Extension Clinic,850 49th Street,Brooklyn,New York,"11219"
Lenox Health Greenwich Village,"-74.000488","40.737576",Hospital,30 Seventh Avenue,New York,New York,"10011"
West Side High School,"-73.966492","40.797367",School Based Diagnostic and Treatment Center Extension Clinic,140 West 102nd Street,New York,New York,"10025"
Mott Haven Campus,"-73.923477","40.822781",School Based Hospital Extension Clinic,730 Concourse Village West,Bronx,New York,"10451"
PS 188,"-73.977806","40.719692",School Based Diagnostic and Treatment Center Extension Clinic,442 East Houston St,New York,New York,"10007"
"Sun River Health Sidney R. Baer, Jr.","-73.993941","40.755128",Diagnostic and Treatment Center Extension Clinic,347 West 37th Street,New York,New York,"10018"
The Children's Health Center of the New York Foundling,"-73.920898","40.806316",Diagnostic and Treatment Center,170 Brown Place,Bronx,New York,"10454"
Montefiore Med Park Group Dental,"-73.846794","40.845581",Hospital Extension Clinic,1625 Poplar Street-Suite 225,Bronx,New York,"10461"
SBH Health System,"-73.891014","40.853909",Hospital,4422 Third Avenue,Bronx,New York,"10457"
Sun River Health Inwood,"-73.916435","40.84412",Diagnostic and Treatment Center Extension Clinic,1543-1545 Inwood Avenue,Bronx,New York,"10452"
Fordham-Tremont Comm Mntl Health Center,"-73.904449","40.851776",Hospital Extension Clinic,2021 Grand Concourse,Bronx,New York,"10453"
Morris Heights at Walton Avenue,"-73.903175","40.858597",Diagnostic and Treatment Center Extension Clinic,25 East 183rd Street,Bronx,New York,"10453"
Grand Concourse Dialysis Facility,"-73.909164","40.846325",Diagnostic and Treatment Center,1780 Grand Concourse,Bronx,New York,"10457"
Samaritan Health Village 53rd St,"-73.968307","40.757301",Diagnostic and Treatment Center Extension Clinic,225 East 53rd Street,New York,New York,"10022"
Brooklyn Hospital Center Extension Clinic,"-74.01062","40.635269",Hospital Extension Clinic,771 61st Streete,Brooklyn,New York,"11220"
Staten Island Extension DTC,"-74.090599","40.596214",Diagnostic and Treatment Center Extension Clinic,88 Old Town Road,Staten Island,New York,"10304"
"Carnegie Hill Endoscopy, LLC","-73.950356","40.786766",Diagnostic and Treatment Center,1516 Lexington Avenue,New York,New York,"10029"
Fordham-Tremont Comm Mental Health Center,"-73.899307","40.856369",Hospital Extension Clinic,2250 Ryer Avenue,Bronx,New York,"10458"
First Medcare Primary Care Center,"-73.908173","40.63895",Diagnostic and Treatment Center,8705 Flatlands Avenue,Brooklyn,New York,"11236"
PS 28,"-73.942145","40.831286",School Based Hospital Extension Clinic,475 West 155th Street,Manhattan,New York,"10032"
Kings County Hospital Center,"-73.944099","40.655823",Hospital,451 Clarkson Avenue,Brooklyn,New York,"11203"
Flatlands Dialysis,"-73.957359","40.609398",Diagnostic and Treatment Center Extension Clinic,"1641 East 16th Street, 5th Floor",Brooklyn,New York,"11229"
Mapleton Clinic Treatment Program,"-73.976349","40.626877",Hospital Extension Clinic,1083 Mcdonald Avenue,Brooklyn,New York,"11230"
PS 94 Health Extension Clinic,"-74.008263","40.643711",School Based Hospital Extension Clinic,5010 6th Avenue,Brooklyn,New York,"11220"
New York-Presbyterian Hospital - Columbia Presbyterian Center,"-73.940704","40.841415",Hospital,622 West 168th Street,New York,New York,"10032"
Allhealth D&T Center-Brooklyn2,"-73.960091","40.608746",Diagnostic and Treatment Center,1655 East 13th St,Brooklyn,New York,"11229"
Psychiatric Day Treatment Clinic,"-73.753639","40.604679",Hospital Extension Clinic,20-12 Mott Avenue,Far Rockaway,New York,"11691"
MS 390/PS 396,"-73.913437","40.854355",School Based Diagnostic and Treatment Center Extension Clinic,1930 Andrews Avenue,Bronx,New York,"10453"
P.S. 044 Thomas C. Brown,"-74.15731","40.631687",School Based Hospital Extension Clinic,80 Maple Parkway,Staten Island,New York,"10303"
Bronx Regional High School,"-73.898827","40.823048",School Based Hospital Extension Clinic,1010 Rev J A Polite Avenue,Bronx,New York,"10459"
"La Casa De Salud, Inc. Casa Maria","-73.920654","40.816727",Diagnostic and Treatment Center Extension Clinic,324 East 149th Street,Bronx,New York,"10455"
Interfaith Medical Center-St. Mark's,"-73.958176","40.677261",Hospital Extension Clinic,880 Bergen Street,Brooklyn,New York,"11238"
Prospect Park Dialysis Center,"-73.950774","40.655961",Diagnostic and Treatment Center,672 Parkside Ave,Brooklyn,New York,"11226"
Fort Greene District Health Center,"-73.982254","40.691814",Diagnostic and Treatment Center Extension Clinic,295 Flatbush Avenue Extension,Brooklyn,New York,"11201"
Intermediate School 143 Eleanor Roosevelt,"-73.931534","40.849228",School Based Hospital Extension Clinic,515 West 182nd Street,New York,New York,"10033"
HASC Diagnostic & Treatment Center Inc,"-73.961235","40.619778",Diagnostic and Treatment Center,1221 East 14th St,Brooklyn,New York,"11230"
Main Street Radiology at Bayside,"-73.782974","40.757332",Diagnostic and Treatment Center Extension Clinic,44-01 Francis Lewis Boulevard,Bayside,New York,"11361"
The Door - A Center of Alternatives,"-74.0047","40.724056",Diagnostic and Treatment Center,121 Ave of The Americas,New York,New York,"10013"
Bay Plaza Primary Care Center,"-73.82605","40.869362",Hospital Extension Clinic,2100 Bartow Avenue,Bronx,New York,"10475"
Intermediate School 217 Entrada Academy & Charter School,"-73.893951","40.822426",School Based Hospital Extension Clinic,977 Fox Street,Bronx,New York,"10459"
Institute for Urban Family Health/Sidney Hillman Center,"-73.991905","40.736935",Diagnostic and Treatment Center Extension Clinic,16 East 16th Street,New York,New York,"10003"
P.S./I.S. 157 The Benjamin Health & Science Academy,"-73.95966","40.695276",School Based Hospital Extension Clinic,850 Kent Avenue,Brooklyn,New York,"11205"
Center for Advanced Medicine,"-73.952438","40.791565",Hospital Extension Clinic,5 East 102nd Street,New York,New York,"10029"
CenterLight Healthcare D&TC,"-73.946281","40.786346",Diagnostic and Treatment Center Extension Clinic,216 East 99th Street,New York,New York,"10029"
Avon Foundation Breast Imaging Center,"-73.939713","40.839909",Hospital Extension Clinic,1130 St Nichols Avenue,New York,New York,"10032"
Psychiatric Out-Patient Clinic,"-73.955139","40.788605",Hospital Extension Clinic,1160 Fifth Avenue,New York,New York,"10029"
CHN - Dr. Betty Shabazz Center,"-73.881386","40.669888",Diagnostic and Treatment Center Extension Clinic,999 Blake Avenue,Brooklyn,New York,"11208"
Allerton Dialysis,"-73.867027","40.864861",Diagnostic and Treatment Center Extension Clinic,2554 White Plains Road,Bronx,New York,"10467"
I S 49,"-73.943911","40.709815",School Based Diagnostic and Treatment Center Extension Clinic,223 Graham Avenue,Brooklyn,New York,"11206"
Sunset Park High School,"-74.004845","40.655552",School Based Hospital Extension Clinic,153 35th Street,Brooklyn,New York,"11232"
Beth Jacob Day Care,"-73.988808","40.635853",School Based Diagnostic and Treatment Center Extension Clinic,1363 46th Street,Brooklyn,New York,"11219"
Harlem East Life Plan,"-73.935249","40.800568",Diagnostic and Treatment Center,2367-69 Second Avenue,New York,New York,"10035"
Franklin K Lane,"-73.870239","40.690739",School Based Hospital Extension Clinic,999 Jamaica Avenue,Brooklyn,New York,"11208"
Joseph P. Addabbo Family Health Center,"-74.009979","40.677782",Diagnostic and Treatment Center Extension Clinic,120 Richards Street,Brooklyn,New York,"11231"
NYP/Queens Trude Weishaupt Memorial Satellite Dialysis Center,"-73.796165","40.739449",Hospital Extension Clinic,59-28 174th Street,Fresh Meadows,New York,"11365"
Van Wyck Dialysis,"-73.815544","40.698763",Diagnostic and Treatment Center Extension Clinic,91-30 Van Wyck Expressway,Jamaica,New York,"11418"
"Gramercy Surgery Center, Inc. - Queens","-73.814594","40.739917",Diagnostic and Treatment Center Extension Clinic,59-25 Kissena Boulevard,Flushing,New York,"11355"
Parsons Community Health Center,"-73.800264","40.704076",Diagnostic and Treatment Center Extension Clinic,90-37 Parsons Boulevard,Jamaica,New York,"11432"
GuildCare Manhattan,"-73.98805","40.774257",Diagnostic and Treatment Center Extension Clinic,80 West End Avenue,New York,New York,"10023"
Planned Parenthood Bronx Health Center,"-73.919655","40.816704",Diagnostic and Treatment Center Extension Clinic,349 East 149th Street,Bronx,New York,"10451"
Morris Heights at Melrose Ave,"-73.915123","40.821934",Diagnostic and Treatment Center Extension Clinic,779 Melrose Ave,Bronx,New York,"10451"
General Clinical Research Center,"-73.844528","40.851105",Hospital Extension Clinic,1300 Morris Park Avenue,Bronx,New York,"10461"
Sun River Health Staten Island,"-74.074844","40.638611",Diagnostic and Treatment Center Extension Clinic,57 Bay Street,Staten Island,New York,"10301"
Stevenson Family Health Center,"-73.858223","40.821575",Diagnostic and Treatment Center Extension Clinic,731 White Plains Road,Bronx,New York,"10473"
Medex Diagnostic and Treatment Center,"-73.838135","40.719143",Diagnostic and Treatment Center,111-29 Queens Blvd,Forest Hills,New York,"11375"
J. H. S. 22,"-73.979759","40.718117",School Based Diagnostic and Treatment Center Extension Clinic,111 Columbia Street,New York,New York,"10002"
Medisys Family Care - St. Albans,"-73.781319","40.693756",Hospital Extension Clinic,111-20 Merrick Boulevard,Jamaica,New York,"11433"
CHN - Queens Center,"-73.805733","40.697163",Diagnostic and Treatment Center Extension Clinic,97-04 Sutphin Blvd,Jamaica,New York,"11435"
NYU Langone Health-Cobble Hill,"-73.997478","40.689615",Hospital,83 Amity Street,Brooklyn,New York,"11201"
Lower Eastside Service Center Inc,"-73.983199","40.711055",Diagnostic and Treatment Center,7 Gouverneur Slip East,New York,New York,"10002"
Medisys Family Care Center,"-73.81955","40.702316",Hospital Extension Clinic,133-03 Jamaica Avenue,Jamaica,New York,"11418"
Mobile Eye Clinic,"-73.805962","40.696922",Mobile Diagnostic and Treatment Center Extension Clinic,97-04 Sutphin Boulevard,Jamaica,New York,"11432"
Joseph P Addabbo Family Health Center,"-73.749008","40.607697",Diagnostic and Treatment Center Extension Clinic,1284-1292 Central Aveune,Far Rockaway,New York,"11691"
The Firehouse Health Clinic,"-73.798347","40.705261",Diagnostic and Treatment Center Extension Clinic,89-56 162nd Street,Jamaica,New York,"11432"
Ridgewood Dialysis Center,"-73.91465","40.706997",Diagnostic and Treatment Center,385 Seneca Avenue,Ridgewood,New York,"11354"
Center for Child Health & Resiliency,"-73.901009","40.820988",Hospital Extension Clinic,890 Prospect Avenue,Bronx,New York,"10459"
University Ave Family Practice Center,"-73.904282","40.864326",Hospital Extension Clinic,105 West 188th Street,Bronx,New York,"10468"
New York Medical and Diagnostic Center,"-73.83017","40.713314",Diagnostic and Treatment Center,80-46 Kew Gardens Road,Kew Gardens,New York,"11415"
NEOMY Dialysis Center,"-73.96648","40.630352",Diagnostic and Treatment Center Extension Clinic,1122 Coney Island Avenue,Brooklyn,New York,"11230"
NYU Langone Perlmutter Cancer Center - Rego Park,"-73.85862","40.729031",Hospital Extension Clinic,97-77 Queens Boulevard,Rego Park,New York,"11374"
CS 200/James Mccune Smith,"-73.936646","40.824688",School Based Diagnostic and Treatment Center Extension Clinic,2589 Seventh Avenue,New York,New York,"10039"
Callen-Lorde Bronx,"-73.910583","40.822279",Diagnostic and Treatment Center Extension Clinic,3144 3rd Avenue,Bronx,New York,"10451"
Catherine M. Abate Health Center,"-73.987038","40.720673",Diagnostic and Treatment Center Extension Clinic,150 Essex Street,New York,New York,"10002"
Help Morris Clinic,"-73.910226","40.838911",Diagnostic and Treatment Center Extension Clinic,285 East 171st Street,Bronx,New York,"10452"
P.S. 019 Marino Jeantet,"-73.86672","40.74932",School Based Hospital Extension Clinic,98-02 Roosevelt Avenue,Queens,New York,"11368"
David H. Koch Center For Cancer Care,"-73.951584","40.767588",Hospital,530 East 74th Street,New York,New York,"10021"
Astoria Dialysis Center,"-73.925438","40.756756",Diagnostic and Treatment Center Extension Clinic,34-01 35th Avenue,Astoria,New York,"11106"
CHN Mobile Van V,"-73.80575","40.697155",Mobile Diagnostic and Treatment Center Extension Clinic,97-04 Sutphin Boulevard,Jamaica,New York,"11435"
RUMC-Bayley Seton,"-74.07476","40.621376",Hospital,75 Vanderbilt Avenue,Staten Island,New York,"10304"
FMS-Nephro Care West,"-73.986343","40.673431",Diagnostic and Treatment Center Extension Clinic,358-362 4th Avenue,Brooklyn,New York,"11215"
Kings Harbor Dialysis Center,"-73.829597","40.860195",Diagnostic and Treatment Center,2020 East Gun Hill Road,Bronx,New York,"10469"
Brooklyn Hospital Center - Downtown Campus,"-73.977455","40.689842",Hospital,121 Dekalb Avenue,Brooklyn,New York,"11201"
Castle Hill Medical Center of New York Inc.,"-73.849594","40.826061",Diagnostic and Treatment Center,920 Castle Hill Avenue,Bronx,New York,"10473"
PS/MS 306,"-73.910385","40.851929",School Based Diagnostic and Treatment Center Extension Clinic,40 W Tremont Avenue,Bronx,New York,"10453"
Women's Health Center Ext Clinic,"-73.918465","40.703762",Hospital Extension Clinic,110-112 Wyckoff Avenue,Brooklyn,New York,"11237"
Wards Island Family Health Center,"-73.933804","40.789506",Diagnostic and Treatment Center Extension Clinic,13 Hell Gate Circle,New York,New York,"10035"
Urban Health Plan Extension Clinic,"-73.860298","40.753578",Diagnostic and Treatment Center Extension Clinic,37-12 108th Street,Corona,New York,"11368"
Kew Gardens Dialysis Center,"-73.82888","40.713261",Diagnostic and Treatment Center,120-46 Queens Boulevard,Kew Gardens,New York,"11415"
JHS 117 (Joseph H Wade),"-73.908501","40.848476",School Based Diagnostic and Treatment Center Extension Clinic,1865 Morris Avenue,Bronx,New York,"10453"
Weill Cornell Imaging at NY-WGC,"-73.954811","40.765495",Diagnostic and Treatment Center Extension Clinic,1305 York Avenue,New York,New York,"10021"
Greenpoint Dialysis,"-73.943728","40.707959",Diagnostic and Treatment Center Extension Clinic,146 Meserole Street,Brooklyn,New York,"11206"
Rogosin Institute - Nephrology Foundation of Brooklyn South,"-73.972717","40.607754",Diagnostic and Treatment Center Extension Clinic,1845 Mcdonald Avenue,Brooklyn,New York,"11223"
EMU Health,"-73.855453","40.70208",Diagnostic and Treatment Center,83-40 Woodhaven Boulevard,Glendale,New York,"11385"
Flushing Hospital Medical Center,"-73.815475","40.755531",Hospital,45th Avenue & Parsons Blvd,Flushing,New York,"11355"
M.S. 54 Booker T. Washington,"-73.962509","40.800037",School Based Diagnostic and Treatment Center Extension Clinic,103 West 107th Street,New York,New York,"10025"
Millennium Dialysis,"-73.956863","40.627888",Diagnostic and Treatment Center Extension Clinic,1408 Ocean Avenue,Brooklyn,New York,"11230"
BMS at Genesis,"-73.900291","40.666336",Diagnostic and Treatment Center Extension Clinic,360 Snediker Avenue,East New York,New York,"11207"
Empire State Ambulatory Surgery Center,"-73.874819","40.872658",Diagnostic and Treatment Center,3170 Webster Avenue,Bronx,New York,"10467"
PS 042 Benjamin Altman,"-73.991425","40.716114",School Based Diagnostic and Treatment Center Extension Clinic,71 Hester Street,New York,New York,"10002"
Metropolitan Hospital Center,"-73.94368","40.784775",Hospital,1901 First Avenue,New York,New York,"10029"
Primary Care Clinic,"-74.084381","40.582493",Hospital Extension Clinic,500 Seaview Avenue,Staten Island,New York,"10305"
Morris Heights Counseling Center,"-73.910202","40.854454",Diagnostic and Treatment Center Extension Clinic,70 West Burnside Avenue,Bronx,New York,"10453"
Jonathan Williams Houses Child HC,"-73.958356","40.713296",Diagnostic and Treatment Center Extension Clinic,333 Roebling Street,Brooklyn,New York,"11211"
Medisys Family Care - Hollis Tudors,"-73.756889","40.705929",Hospital Extension Clinic,200-16 Hollis Avenue,Jamaica,New York,"11423"
August Martin High School,"-73.782733","40.674071",School Based Hospital Extension Clinic,156-10 Baisley Blvd.,Jamaica,New York,"11434"
International Community High School,"-73.917847","40.810066",School Based Diagnostic and Treatment Center Extension Clinic,345 Brook Avenue,Bronx,New York,"10454"
ODA Primary Health Care Center,"-73.959806","40.698896",Diagnostic and Treatment Center Extension Clinic,74 Wallabout Street,Brooklyn,New York,"11249"
Beth Israel Med Center 2-C,"-73.98011","40.739075",Hospital Extension Clinic,435 2nd Avenue,New York,New York,"10010"
X198,"-73.900594","40.828532",School Based Hospital Extension Clinic,1180 Tinton Ave,Bronx,New York,"10456"
New York-Presbyterian Hospital - Allen Hospital,"-73.912773","40.872475",Hospital,5141 Broadway,New York,New York,"10034"
"Care for the Homeless, Inc.","-73.786575","40.710953",Diagnostic and Treatment Center Extension Clinic,175-10 88th Avenue,Jamaica,New York,"11432"
NY Hotel Trades Council&Hotel Assoc of NYC Health/Midtown Clinic,"-73.988243","40.764542",Diagnostic and Treatment Center,773-775 9th Avenue,New York,New York,"10019"
X098,"-73.890597","40.836061",School Based Hospital Extension Clinic,1619 Boston Road,Bronx,New York,"10460"
Mobile Dental Unit,"-73.946495","40.807384",Mobile Diagnostic and Treatment Center Extension Clinic,123-125 W. 124th Street,New York,New York,"10027"
The Endoscopy Center of Queens,"-73.913315","40.773632",Diagnostic and Treatment Center,23-25 31st Street,Astoria,New York,"11105"
Clearview Dialysis,"-73.78244","40.755523",Diagnostic and Treatment Center Extension Clinic,45-60 Francis Lewis Boulevard,Bayside,New York,"11361"
NYP/Queens Dental Services Center,"-73.795158","40.739079",Hospital Extension Clinic,"174-11 Horace Harding Expressway, 2nd Floor",Fresh Meadows,New York,"11365"
PS 180 Hugo Newman College Preparatory School,"-73.955772","40.80788",School Based Diagnostic and Treatment Center Extension Clinic,370 West 120th Street,New York,New York,"10027"
Bronx Health Collective,"-73.900787","40.819115",Hospital Extension Clinic,853 Longwood Avenue,Bronx,New York,"10459"
Staten Island University Hospital Prince's Bay,"-74.196808","40.516773",Hospital,375 Seguine Avenue,Staten Island,New York,"10309"
Franklin K Lane,"-73.870239","40.690739",School Based Hospital Extension Clinic,999 Jamaica Avenue,Brooklyn,New York,"11208"
NYU Winthrop NYC Cyberknife,"-73.984766","40.774315",Hospital Extension Clinic,150 Amsterdam Avenue,New York,New York,"10023"
ODA Therapy Center,"-73.958534","40.699875",Diagnostic and Treatment Center Extension Clinic,18 Heyward Street,Brooklyn,New York,"11249"
Washington Heights Family Center,"-73.933243","40.849182",Hospital Extension Clinic,575 West 181st Street,New York,New York,"10032"
CenterLight Healthcare D&TC,"-73.897957","40.696907",Diagnostic and Treatment Center Extension Clinic,11-40 Seneca Avenue,Ridgewood,New York,"11385"
Montefiore Hutchinson Campus,"-73.839535","40.852561",Hospital Extension Clinic,1250 Waters Place,Bronx,New York,"10461"
PS 194 Raoul Wallenberg,"-73.934016","40.59715",School Based Hospital Extension Clinic,3117 Avenue W,Brooklyn,New York,"11229"
Jamaica Hospital Medical Center,"-73.816299","40.701412",Hospital,89th Avenue & Van Wyck Expressway,Jamaica,New York,"11418"
NYP/Queens Cardiac Health Center,"-73.795158","40.739079",Hospital Extension Clinic,"174-11 Horace Harding Expressway, 1st Floor",Fresh Meadows,New York,"11365"
Columbia University Health Care Inc,"-73.940964","40.84153",Diagnostic and Treatment Center,630 West 168th Street,New York,New York,"10032"
Bishop O.G. Walker Jr Health Care Center,"-73.959","40.675537",Hospital Extension Clinic,528 Prospect Place,Brooklyn,New York,"11238"
"Dialyze Direct NY, LLC","-73.984917","40.63186",Diagnostic and Treatment Center,4714 16th Avenue,Brooklyn,New York,"11204"
Heritage Health Care,"-73.947258","40.825588",Diagnostic and Treatment Center,1727 Amsterdam Ave,New York,New York,"10031"
Long Island Jewish Forest Hills,"-73.851036","40.728745",Hospital,102-01 66th Road,Forest Hills,New York,"11375"
Avantus Upper Manhattan Dialysis Center,"-73.968552","40.796145",Diagnostic and Treatment Center Extension Clinic,801 Amsterdam Avenue,New York,New York,"10025"
Mount Eden Dialysis,"-73.917651","40.842679",Diagnostic and Treatment Center Extension Clinic,1490 Macombs Road,Bronx,New York,"10452"
Susan E. Wagner High School,"-74.124733","40.597157",School Based Hospital Extension Clinic,1200 Manor Road,Staten Island,New York,"10314"
All-Med & Rehabilitation of New York,"-73.858231","40.899326",Diagnostic and Treatment Center,4377 Bronx Blvd,Bronx,New York,"10466"
Narco Freedom-561 Court Street,"-74.000046","40.673622",Diagnostic and Treatment Center Extension Clinic,553-561 Court Street,Brooklyn,New York,"11231"
Lotus Health and Wellness,"-73.956153","40.814529",Diagnostic and Treatment Center,512 W 126th Street,New York,New York,"10027"
Kings Highway Dialysis,"-73.921825","40.619197",Diagnostic and Treatment Center Extension Clinic,5518 Avenue N,Brooklyn,New York,"11234"
Queens Boulevard Extended Care Facility Dialysis Center,"-73.902962","40.741776",Diagnostic and Treatment Center,61-11 Queens Boulevard,Woodside,New York,"11377"
"FedCare, Inc.","-73.98748","40.76363",Diagnostic and Treatment Center,344 West 51 Street,New York,New York,"10019"
PS 15,"-74.011879","40.677513",School Based Hospital Extension Clinic,71 Sullivan Street,Brooklyn,New York,"11220"
Charles B Wang Community Health Center Inc,"-73.999359","40.717232",Diagnostic and Treatment Center,125 Walker Street,New York,New York,"10013"
Richmond Kidney Center,"-74.109016","40.614563",Diagnostic and Treatment Center Extension Clinic,1366 Victory Boulevard,Staten Island,New York,"10301"
Mobile Health Center #2,"-73.936493","40.800378",Mobile Diagnostic and Treatment Center Extension Clinic,234 East 121 Street,New York,New York,"10455"
Third Avenue Imaging LLC,"-73.919823","40.814968",Diagnostic and Treatment Center,2781 Third Ave,Bronx,New York,"10455"
South Brooklyn Nephrology Center,"-73.912445","40.613831",Diagnostic and Treatment Center Extension Clinic,39-15 Avenue V,Brooklyn,New York,"11234"
NYU Langone Orthopedic Center,"-73.971489","40.746288",Hospital Extension Clinic,333 East 38th Street,New York,New York,"10016"
The Mackool Eye Institute LLC,"-73.916771","40.76025",Diagnostic and Treatment Center,31-27 41st St,Astoria,New York,"11103"
Medisys Howard Beach Women&Children Care,"-73.841232","40.663975",Hospital Extension Clinic,156-10 Cross Bay Boulevard,Howard Beach,New York,"11414"
CS 46/Tappan,"-73.935822","40.831367",School Based Diagnostic and Treatment Center Extension Clinic,2987 Eighth Avenue,New York,New York,"10039"
Herbert H. Lehman High School,"-73.838272","40.840576",School Based Hospital Extension Clinic,3000 East Tremont Street,Bronx,New York,"10461"
Haven Dialysis,"-73.942924","40.843445",Diagnostic and Treatment Center Extension Clinic,60 Haven Ave,New York,New York,"10032"
Center for Radiation Therapy,"-73.846916","40.845497",Hospital Extension Clinic,1617 Poplar Street,Bronx,New York,"10461"
Comprehensive Fam Care Center,"-73.845665","40.844967",Hospital Extension Clinic,1621 Eastchester Road,Bronx,New York,"10461"
Community Healthcare Network,"-73.805962","40.696922",Mobile Diagnostic and Treatment Center Extension Clinic,97-04 Sutphin Boulevard,Jamaica,New York,"11435"
Roberto Clemente Family Guidance Center,"-73.979195","40.728966",Diagnostic and Treatment Center Extension Clinic,540 East 13th Street,New York,New York,"10009"
Wyckoff Heights Medical Center,"-73.91774","40.704517",Hospital,374 Stockholm Street,Brooklyn,New York,"11237"
35th Street Health Center,"-73.992867","40.752907",Diagnostic and Treatment Center Extension Clinic,500 Eighth Avenue  3rd Floor,New York,New York,"10018"
Adapt Community Network,"-73.973892","40.630581",Diagnostic and Treatment Center,175 Lawrence Avenue,Brooklyn,New York,"11230"
U.S. Renal Care South Flushing Dialysis,"-73.808731","40.729652",Diagnostic and Treatment Center,71-12 Park Avenue,Flushing,New York,"11365"
Premier Healthcare Tremont Avenue,"-73.836594","40.839355",Diagnostic and Treatment Center Extension Clinic,3060 East Tremont Avenue,Bronx,New York,"10461"
Montefiore Medical Center - Henry & Lucy Moses Div,"-73.880562","40.879951",Hospital,111 East 210th Street,Bronx,New York,"10467"
Urban Horizons Family Practice,"-73.918968","40.836559",Diagnostic and Treatment Center Extension Clinic,50-98 East 168th Street,Bronx,New York,"10452"
Waters Place Dialysis Center,"-73.84478","40.847191",Diagnostic and Treatment Center Extension Clinic,1733 Eastchester Road,Bronx,New York,"10461"
CHN - Caribbean House Clinic,"-73.950386","40.658989",Diagnostic and Treatment Center Extension Clinic,1167 Nostrand Avenue,Brooklyn,New York,"11225"
Fordham-Tremont Comm Mntl Health Center,"-73.885582","40.840729",Hospital Extension Clinic,1900 Crotona Parkway,Bronx,New York,"10460"
START Treatment & Recovery Centers,"-73.965019","40.683155",Diagnostic and Treatment Center Extension Clinic,937 Fulton Street,Brooklyn,New York,"11238"
Montefiore Medical Center - Wellness Center at Melrose,"-73.91899","40.825482",Hospital Extension Clinic,260 East 161st Street,Melrose,New York,"10451"
Ryan Health | Wadsworth,"-73.935213","40.849744",Diagnostic and Treatment Center Extension Clinic,154 Wadsworth Avenue,New York,New York,"10033"
Union Square Eye Care,"-73.98789","40.73779",Diagnostic and Treatment Center Extension Clinic,"235 Park Avenue South, 2nd Floor",New York,New York,"10003"
Atlas Park Dialysis,"-73.869771","40.709092",Diagnostic and Treatment Center Extension Clinic,80-00 Cooper Avenue,Glendale,New York,"11385"
Memorial Sloan Kettering 64th Street Outpatient Center,"-73.963377","40.764373",Hospital Extension Clinic,205 East 64th Street,New York,New York,"10065"
"Park Avenue Dialysis Center, LLC","-73.938804","40.803836",Diagnostic and Treatment Center,116 East 124th Street,New York,New York,"10035"
Project Renewal Health 45th Street Clinic,"-73.972","40.752319",Diagnostic and Treatment Center Extension Clinic,225 East 45th Street,New York,New York,"10017"
Montefiore Medical Center - Wellness Center at Port Morris,"-73.91041","40.803387",Hospital Extension Clinic,804 East 138th Street,Bronx,New York,"10454"
Crown Heights Health Center,"-73.935692","40.67347",Diagnostic and Treatment Center Extension Clinic,1218 Prospect Place,Brooklyn,New York,"11213"
Primary Care Annex,"-74.011787","40.64032",Hospital Extension Clinic,5616 6th Avenue,Brooklyn,New York,"11220"
Covenant House,"-73.995537","40.758739",Diagnostic and Treatment Center,460 West 41st Street,New York,New York,"10036"
West Farms Family Practice Center,"-73.88002","40.840321",Hospital Extension Clinic,1055 East Tremont Avenue,Bronx,New York,"10460"
256 Mason Avenue Radiology,"-74.086708","40.586643",Hospital Extension Clinic,256 Mason Avenue,Staten Island,New York,"10305"
IDCC Health Services,"-73.983806","40.605635",Diagnostic and Treatment Center,201 Kings Highway,Brooklyn,New York,"11223"
HSS Hudson Yards,"-74.001051","40.754429",Hospital Extension Clinic,"532-560 West 33rd Street, 8th Floor",New York,New York,"10001"
Maimonides Adult and Pediatric Care 7th Avenue,"-74.013725","40.634846",Hospital Extension Clinic,6323 Seventh Avenue,Brooklyn,New York,"11220"
Ambulatory Care Clinic at Union Hosp,"-73.896179","40.860882",Hospital Extension Clinic,260 East 188th Street,Bronx,New York,"10458"
Methadone Clinic II,"-73.958687","40.678497",Hospital Extension Clinic,639 Classon Avenue,Brooklyn,New York,"11238"
Frank J. Macchiarola Educational Complex,"-73.937669","40.594079",School Based Hospital Extension Clinic,3000 Avenue X,Brooklyn,New York,"11235"
Ryan/Chelsea-Clinton Community Health Center,"-73.99395","40.76181",Diagnostic and Treatment Center,645 Tenth Ave,New York,New York,"10036"
PS 85,"-73.895042","40.858891",School Based Hospital Extension Clinic,2400 Marion Ave,Bronx,New York,"10458"
NY Med,"-73.84848","40.721569",Diagnostic and Treatment Center,69-15b Austin Street,Forest Hills,New York,"11375"
"Flushing Endoscopy Center, LLC","-73.829292","40.759727",Diagnostic and Treatment Center,136-02 Roosevelt Avenue,Flushing,New York,"11354"
"GoldStep Ambulatory Surgery Center, LLC","-73.947713","40.63644",Diagnostic and Treatment Center,3007 Farragut Road,Brooklyn,New York,"11210"
NewYork-Presbyterian Brooklyn Methodist Hospital,"-73.978905","40.668087",Hospital,506 Sixth Street,Brooklyn,New York,"11215"
Project Renewal,"-73.990951","40.725937",Diagnostic and Treatment Center,8 East 3rd Street,New York,New York,"10003"
Union Community Health Center Mobile Medical Van,"-73.896103","40.860435",Mobile Diagnostic and Treatment Center Extension Clinic,260 East 188th Street,Bronx,New York,"10458"
Ryan/Frederick Douglass Community Health Center,"-73.950141","40.812108",Diagnostic and Treatment Center Extension Clinic,2381 Frederick Douglass Boulevard,New York,New York,"10027"
Brian Picolo/Intermediate School #53 School Clinic,"-73.749321","40.604053",School Based Hospital Extension Clinic,1045 Nameoke Street,Far Rockaway,New York,"11691"
Scanvan (Mobile),"-73.991211","40.726082",Diagnostic and Treatment Center Extension Clinic,8 East Third Street,New York,New York,"10013"
PS 171 Patrick Henry Preparatory School,"-73.951449","40.792294",School Based Hospital Extension Clinic,19 East 103rd Street,New York,New York,"10029"
Hudson Specialty Surgery Center,"-73.99971","40.752207",Diagnostic and Treatment Center,450 West 31st Street,New York,New York,"10001"
Surgery of Tomorrow,"-73.960884","40.606271",Diagnostic and Treatment Center,1766 East 12th Street,Brooklyn,New York,"11229"
"Montefiore Medical Center-Moses/Mobile Van #1,#2,#3,& #4","-73.880562","40.879951",Hospital Extension Clinic,111 East 210th Street,Bronx,New York,"10467"
Long Island Jewish Medical Center,"-73.707576","40.753797",Hospital,270-05 76th Avenue,New Hyde Park,New York,"11040"
TapCo Campus,"-73.896489","40.855005",School Based Diagnostic and Treatment Center Extension Clinic,2225 Webster Avenue,Bronx,New York,"10457"
Rogosin Kidney Center-Bklyn Dialysis,"-73.978905","40.668087",Diagnostic and Treatment Center Extension Clinic,506 Sixth St-7th Fl Buckley Pavilion,Brooklyn,New York,"11215"
Melrose Houses Child Health Clinic,"-73.91729","40.821201",Diagnostic and Treatment Center Extension Clinic,348 East 156th Street,Bronx,New York,"10451"
PS 333/335,"-73.898857","40.820351",School Based Diagnostic and Treatment Center Extension Clinic,888 Rev. James A. Polite Ave,Bronx,New York,"10456"
IDCC Health Services,"-73.973505","40.604452",Diagnostic and Treatment Center Extension Clinic,445 Kings Highway,Brooklyn,New York,"11223"
BronxCare Ogden Family Medical and Dental Center,"-73.928391","40.834835",Diagnostic and Treatment Center Extension Clinic,1067 Ogden Avenue,Bronx,New York,"10456"
Stuyvesant Heights Dialysis,"-73.921122","40.676425",Diagnostic and Treatment Center Extension Clinic,2064 Altantic Avenue,Brooklyn,New York,"11208"
PS/MS 75,"-73.889343","40.822418",School Based Diagnostic and Treatment Center Extension Clinic,984 Faile Street,Bronx,New York,"10459"
PS 153/368,"-73.946877","40.826344",School Based Hospital Extension Clinic,1750 Amsterdam Avenue,New York,New York,"10031"
ODA Primary Health Care Network Dental Clinic,"-73.959435","40.700439",Diagnostic and Treatment Center Extension Clinic,54 Rutledge Street,Brooklyn,New York,"11211"
Phoenix House Long Island City Family Health Center,"-73.940491","40.765057",Diagnostic and Treatment Center Extension Clinic,34-11 Vernon Boulevard,Long Island City,New York,"11106"
Longwood Dialysis,"-73.892693","40.818851",Diagnostic and Treatment Center Extension Clinic,931 Bruckner Boulevard,Bronx,New York,"10459"
"Beacon Christian Community Health Center, Inc.","-74.158638","40.626427",Diagnostic and Treatment Center,2079 Forest Avenue,Staten Island,New York,"10303"
121st Street Family Health Center,"-73.936897","40.800873",Diagnostic and Treatment Center Extension Clinic,219 East 121 Street,New York,New York,"10035"
NYU Langone Perlmutter Cancer Center-34th Street,"-73.978752","40.745934",Hospital Extension Clinic,160 East 34th Street,New York,New York,"10016"
NYU Langone Rutherford,"-73.983231","40.734818",Hospital Extension Clinic,305 Second Ave,New York,New York,"10003"
Cloves Lakes Health Care & Rehab Center,"-74.122993","40.608437",Diagnostic and Treatment Center Extension Clinic,25 Fanning Street,Staten Island,New York,"10314"
Brownsville Child Health Clinic,"-73.911385","40.66497",Diagnostic and Treatment Center Extension Clinic,259 Bristol Street,Brooklyn,New York,"11212"
Riverdale Dialysis Center,"-73.90332","40.88047",Diagnostic and Treatment Center Extension Clinic,170 West 233rd Street,Bronx,New York,"10463"
Center for Hearing and Communication,"-74.01255","40.706612",Diagnostic and Treatment Center,50 Broadway,New York,New York,"10004"
Julia Richman High School,"-73.960709","40.76569",School Based Hospital Extension Clinic,317 E 67th Street,New York,New York,"10021"
P R O M E S A Inc,"-73.904655","40.846165",Diagnostic and Treatment Center,1776 Clay Avenue,Bronx,New York,"10457"
HSS Spine Therapy Center,"-73.954243","40.769697",Hospital Extension Clinic,405 East 75th Street,New York,New York,"10021"
I S 302,"-73.883461","40.67701",School Based Diagnostic and Treatment Center Extension Clinic,350 Linwood Street,Brooklyn,New York,"11208"
Sidney Kimmel Center,"-73.958339","40.765739",Hospital Extension Clinic,353 East 68th Street,New York,New York,"10065"
New York-Presbyterian Hospital - New York Weill Cornell Center,"-73.954926","40.76408",Hospital,525 East 68th Street,New York,New York,"10021"
CHN Mobile Van IV,"-73.881325","40.669994",Mobile Diagnostic and Treatment Center Extension Clinic,999 Blake Avenue,Brooklyn,New York,"11208"
CenterLight Healthcare D&TC,"-73.984024","40.590649",Diagnostic and Treatment Center Extension Clinic,2301-2331 Stillwell Avenue,Brooklyn,New York,"11223"
New Dorp High School,"-74.107338","40.569302",School Based Hospital Extension Clinic,465 New Dorp Lane,Staten Island,New York,"10306"
Jerome Family Health Center,"-73.911819","40.848324",Diagnostic and Treatment Center Extension Clinic,1778 Jerome Avenue,Bronx,New York,"10453"
RUMC Behavioral Health Pavilion,"-74.175539","40.612578",Hospital Extension Clinic,1130 South Avenue,Staten Island,New York,"10314"
Rogosin West Side,"-73.994598","40.769203",Diagnostic and Treatment Center Extension Clinic,619 West 54th Street,New York,New York,"10019"
The Derfner Foundation Ambulatory Surgery Center,"-73.95411","40.78902",Diagnostic and Treatment Center,"5 East 98th Street, 14th Floor",New York,New York,"10029"
Abraham Lincoln (K410),"-73.968699","40.582621",School Based Hospital Extension Clinic,2800 Ocean Parkway,Brooklyn,New York,"11235"
"Endoscopic Diagnostic and Treatment Center, LLC","-74.021156","40.628529",Diagnostic and Treatment Center,560-564 Bay Ridge Parkway,Brooklyn,New York,"11209"
Gramercy Park Digestive Disease Center,"-73.987808","40.738426",Diagnostic and Treatment Center,250 Park Avenue South,New York,New York,"10003"
PS 83 Mendoza School,"-73.941612","40.792862",School Based Hospital Extension Clinic,219 East 109th Street,New York,New York,"10029"
"Healthcare Choices NY, Inc.","-73.993164","40.623581",Diagnostic and Treatment Center,6209 16th Avenue,Brooklyn,New York,"11204"
